zip_code,latitude,longitude,cidade
79453,,,
70606,,,
89508,39.66931546527473,-119.91982881186814,Washoe County
84045,40.33702401493507,-111.90530537272727,Utah County
82431,44.83371409090909,-108.39066706363637,Lovell
60083,42.4328277,-87.93423697633588,Lake County
33846,27.9648365,-81.8839561,Highland City
27503,36.15970582881356,-78.8874526931356,Durham County
14416,43.08113002419648,-77.9687220270467,Town of Bergen
28734,35.181136863368664,-83.38576283621909,Franklin
73768,36.37951625,-98.24401055,Ringwood
97825,44.470922,-119.537513,Dayville
24277,36.755796776785715,-83.02735503214285,Pennington Gap
97266,45.48447929788026,-122.56022766159654,Lents
85395,33.48343220138952,-112.3941728763392,Goodyear
95713,39.0739808,-120.95100588888889,Placer County
72447,35.901561605,-90.33942584125,Monette
07979,40.715769640909095,-74.71168211818181,Bedminster Township
65689,37.14183787536232,-92.09298384637681,Texas County
20678,38.53380636462126,-76.58357560456282,Calvert County
94594,,,
17313,39.90139503558468,-76.65480320448589,York Township
13063,42.85613122130965,-75.98541262752497,Town of Fabius
01570,42.05392749047619,-71.86881153809523,Webster
91394,,,
26060,40.0918493,-80.5360447,Ohio County
30114,34.229410908458796,-84.50751776657384,Canton
59248,48.0125994,-106.4110013,McCone County
87511,36.109970315384615,-106.03281228461539,Rio Arriba County
43725,40.02468113297546,-81.58839394447853,Cambridge
29861,,,
54020,45.30586578382979,-92.66593702382978,Town of Farmington
65667,37.26768050285714,-92.51528661142856,Wright County
34984,27.271663322545457,-80.34382159818182,Port Saint Lucie
08027,39.82231609834711,-75.27470105785125,Greenwich Township
73111,35.5098113989418,-97.4811720675485,Oklahoma City
20090,,,
84003,40.40669357163899,-111.79643275809607,Highland
79783,32.375878066666665,-101.99708668333334,Martin County
43901,40.21347702741935,-80.86805153064516,Jefferson County
78234,29.453661869999998,-98.44623295666668,San Antonio
43976,40.33577735555556,-80.89874603333334,Harrison County
92022,32.823638,-116.965165,El Cajon
08343,39.65299834597701,-75.15812235632184,Elk Township
95473,39.42329655,-123.80249655,Mendocino County
86432,36.83036545533981,-113.97621452038834,Mohave County
65681,36.55972343032787,-93.4705418147541,Stone County
48848,42.890366128,-84.36321258150001,Laingsburg
99343,46.53551903333333,-119.220589,Franklin County
41465,37.752760654385966,-83.05592601140351,Magoffin County
32535,30.967348806280196,-87.32856094637681,Escambia County
24137,36.9688272739726,-79.6326575150685,Penhook
83274,43.383056775,-112.1205566,Shelley
08016,40.06657712789559,-74.84674948809135,Burlington
19583,,,
53172,42.91000846937372,-87.86551432408545,South Milwaukee
47443,38.98862874615384,-87.08716037692307,Lyons
70437,30.607538855833333,-90.19248833027778,St. Tammany Parish
27293,,,
49749,45.41984235645624,-84.58502463292683,Koehler Township
27619,,,
93007,,,
20908,,,
61021,41.841541156390974,-89.48128086721805,Dixon
62917,37.68643973625,-88.63937129,Saline County
31324,31.9037364325,-81.3022556425,Bryan County
28083,35.49131173452915,-80.60070840059791,Kannapolis
17922,40.59467460111732,-76.13674824134078,South Manheim Township
37950,,,
08097,39.81488823157895,-75.1525743868421,Woodbury Heights
72751,36.45228154631861,-94.1221318583668,Pea Ridge
30321,33.639508611764704,-84.39819823529412,Clayton County
11720,40.86996025547091,-73.08258032806195,Centereach
38487,35.70445181463415,-87.20832607560976,Maury County
15021,40.38157541102204,-80.41549013046092,Smith Township
92817,33.85219,-117.7938954,Anaheim
56036,43.55706704761904,-93.27486238888888,Freeborn County
43022,40.36616873695652,-82.37934372282609,College Township
23035,37.49357366666667,-76.36643913333334,Mathews County
70087,29.96293302222222,-90.31316538271605,St. Rose
91040,34.26099529677419,-118.3204197,Los Angeles
18088,40.759415920229,-75.57332610229008,Lehigh Township
32448,30.710961685194178,-85.21901345898058,Jackson County
93221,36.30239627953216,-119.12787502982457,Tulare County
28376,34.9934330774319,-79.19145844902724,Hoke County
45232,39.17271280729927,-84.51263073649635,Cincinnati
55734,47.43275904474886,-92.51621233744292,Saint Louis County
43913,40.26248032105263,-80.63842856842105,Jefferson County
92091,32.99055859689367,-117.21168386033455,San Diego County
43025,39.95264501005917,-82.48919898816568,Hebron
18953,40.5282429,-75.1709181,Nockamixon Township
80829,38.85821165972222,-104.91089133472222,Manitou Springs
61112,42.24882459268293,-88.97866669268292,Cherry Valley
12141,42.7350552,-74.1861951,Town of Duanesburg
16441,41.987758419923374,-80.03362548697318,Waterford Township
39218,32.2199436388535,-90.15669339363058,Richland
28170,34.965534391666665,-80.07793796166666,Wadesboro
58802,48.1630614,-103.6544294,Williston
65737,36.66476121899563,-93.38165479323143,Stone County
84637,38.79887375,-112.43736745,Kanosh
92321,34.25464036666667,-117.17027313333332,San Bernardino County
95452,38.40509425454545,-122.42403213636362,Napa County
21798,39.536408828571425,-77.30737262857143,Woodsboro
100133619,,,
78250,29.508478235209424,-98.66567181099477,San Antonio
18644,41.31842417368421,-75.85486836608187,West Wyoming
25843,37.61563915333333,-81.11708581333333,Raleigh County
83422,43.718576885714285,-111.10221492857144,Driggs
33757,,,
76078,33.055365994339624,-97.47158291226415,Rhome
22959,37.943260279166665,-78.62963530104166,Albemarle County
45750,39.42290420393097,-81.45379193576223,Marietta
92596,33.61451136566265,-117.10874571144578,Mahogany Hills
55724,47.167663,-92.45521900978261,Saint Louis County
84332,41.70462016415585,-111.8165637215909,Providence
52756,41.71468559809524,-90.5481634752381,Scott County
41092,38.81719963043478,-84.68704526086957,Boone County
11739,40.72413144381779,-73.15875825900217,Great River
75602,32.46879925689655,-94.72609822126437,Longview
84041,41.068415028688925,-111.9823438168413,Layton
26031,40.01219210238096,-80.72424873095238,Marshall County
80443,39.56201418504673,-106.09696938598131,Summit County
35160,33.436453670054945,-86.12155961387363,Talladega
49614,44.42475466043956,-86.11909210879121,Bear Lake Township
44081,41.7678196875,-81.14923955340909,Perry
97291,,,
43773,39.981951945625,-81.303589665625,Guernsey County
38115,35.0521910741144,-89.86135871553425,Memphis
29221,,,
55025,45.26836025307582,-92.98403485021458,Forest Lake
62565,39.413755972649575,-88.80165083333334,Shelbyville
73119,35.42644626011315,-97.56049754540311,Oklahoma City
42519,36.960439770810815,-84.55889816864865,Pulaski County
83530,45.927187327272726,-116.12638021818182,Grangeville
14738,42.048793791777776,-79.12056768138889,Frewsburg
84791,,,
56332,45.951968788095236,-95.49363106309524,Douglas County
53156,42.90507271567568,-88.5807940081081,Town of Palmyra
16116,41.02790814146341,-80.46514688292683,Mahoning Township
43951,40.1402085875,-80.9719243875,Belmont County
63361,38.96845063846153,-91.53010830591715,Montgomery County
63044,38.74753713866941,-90.4213758442524,Bridgeton
21158,39.614743784639494,-77.02753935579938,Carroll County
49916,46.99356157619048,-88.53933144761905,Chassell Township
99025,47.7183445,-117.06078075,Otis Orchards-East Farms
18426,41.347005255029586,-75.27426984970414,Greene Township
61830,40.015199253125,-88.69546258125,Piatt County
83226,44.50363812173913,-114.21666520652175,Custer County
54229,44.560395846153845,-87.83759833776223,Town of Scott
97759,44.2941680278481,-121.5275005177215,Deschutes County
84087,40.87643764411765,-111.91605697205883,Woods Cross
85636,31.55506785,-110.2823947,Sierra Vista
61849,40.02043345701754,-87.96983866403508,Champaign County
39111,31.865846260144924,-89.73591268876811,Magee
91386,,,
83816,,,
42717,36.75937891348315,-85.36665863932585,Cumberland County
28023,35.56413167916667,-80.5951525712963,Rowan County
50634,42.418219944444445,-92.21436067222223,Gilbertville
78022,28.331385815673293,-98.1239746567329,George West
78076,26.86103245816327,-99.18571822448979,Zapata County
77713,30.13986911982422,-94.25387412041016,Jefferson County
76305,33.97227561925466,-98.50157913291925,Wichita Falls
02660,41.69251002222222,-70.15028280555556,South Dennis
77836,30.529530347087377,-96.69321301504854,Caldwell
11755,40.85481513370562,-73.11676045692063,Village of Lake Grove
15003,40.589419335198556,-80.21593261931407,Harmony Township
85387,33.70427952013154,-112.41456414546039,Surprise
01056,42.1774570484375,-72.4818848828125,Ludlow
19730,39.4543934,-75.65915790555556,Odessa
39320,32.525818296153844,-88.73282043076922,Lauderdale County
20674,38.13328606666667,-76.49764129523808,Saint Mary's County
64468,40.34389497471265,-94.87328698981938,Maryville
18624,41.060671810784314,-75.60026757156864,Kidder Township
73028,35.93210393292683,-97.60995044390245,Logan County
76455,31.8452629875,-98.399287175,Gustine
03850,43.6932888652174,-71.31288264782609,Tuftonboro
32351,30.56141708759124,-84.60919617347932,Quincy
72921,35.49327507795699,-94.21266594919355,Alma
46795,41.54901284497992,-85.36098170803213,LaGrange County
08732,39.94422645714286,-74.14163368214285,Island Heights
85277,,,
99929,56.471653,-132.385487225,Wrangell
26070,40.27447014295302,-80.58979888657717,Follansbee District
40111,37.834232302857146,-86.63160230571428,Cloverport
28220,,,
99185,47.8230086375,-118.700807125,Lincoln County
42409,37.522867035384614,-87.69762243846154,Dixon
84651,40.03171741318681,-111.74241524945054,Payson
81624,39.236542673358706,-107.9158162603235,Mesa County
77563,29.34364805627907,-95.0006215172093,Hitchcock
25882,37.58513544468085,-81.38538914893617,Mullens
33831,27.9532029,-81.9521984,Polk County
37816,,,
27043,36.33452766744186,-80.45459420465116,Surry County
47122,38.302325682608696,-85.97100305043477,Georgetown
49012,42.359294258878506,-85.34563837570094,Ross Township
13215,42.99917703208213,-76.21203441065127,Town of Onondaga
32791,,,
88427,34.767879,-103.667738,Quay County
58017,46.08196158043478,-97.8448364673913,Sargent Township
45341,39.881587191489366,-84.02398624042553,Clark County
71845,33.34709966888889,-93.5874215311111,Lafayette County
94060,37.24510037826087,-122.37819353913042,San Mateo County
15963,40.23564332687074,-78.81325137346938,Paint Township
79772,31.31338999219858,-103.60052068439717,Reeves County
49712,45.22419434585987,-85.0227005799363,Boyne City
76101,,,
78124,29.554141319387757,-98.15252123061224,Guadalupe County
49094,42.05660912430556,-85.13152088541666,Union Township
07865,40.7792669460177,-74.89995879646017,Lebanon Township
71149,,,
28503,35.3179151,-77.5954253,Kinston
39452,30.878995257266606,-88.60401502685274,George County
19481,40.095309375,-75.46135995,Schuylkill Township
78683,,,
80160,,,
77523,29.818589879580575,-94.84392525459897,Chambers County
84518,39.353846,-110.856623,Emery County
80133,39.11795592,-104.90840037000001,Palmer Lake
34734,28.539381816494846,-81.52738741030927,Orange County
68117,41.21093240449102,-96.00764616257486,Omaha
47620,37.94589646736111,-87.86815744930556,Posey County
97222,45.443308748476774,-122.61506896548934,Milwaukie
91748,33.982092318266666,-117.89630988546666,Rowland Heights
25136,38.180599428571426,-81.32833843061225,Montgomery
14136,42.5375195006738,-79.16449324994055,Village of Silver Creek
85143,33.16202250755035,-111.5584216784787,Pinal County
73129,35.4358294338295,-97.47955189282814,Oklahoma City
81224,38.873438045,-106.97838757166667,Crested Butte
35217,33.58862032956989,-86.76590797921148,Tarrant
16630,40.464104745299146,-78.58732704017095,Cresson
72635,36.29701677435897,-92.4844497308718,Gassville
84033,41.022582,-111.50239,Henefer
79084,36.29137623333333,-102.09489676666666,Sherman County
79714,32.32418457981982,-102.54124186162161,Andrews
894519613,,,
04779,47.17109163204748,-68.21304658664688,Sinclair Township
20603,38.6218672015025,-76.95177710200333,Waldorf
85547,35.41542715,-110.46118795,Fort Defiance Agency / Tséhootsooí Bił Hahoodzo biyiʼdi
56470,46.9605119010929,-95.03702571930783,Hubbard County
23354,37.4673924375,-75.90728355,Northampton County
83435,43.9735803,-112.5369459,Jefferson County
85244,,,
03848,42.94106563831418,-70.96989235095786,Kensington
23837,36.71685593090909,-77.06041521030303,Southampton County
32035,30.65972805,-81.44966815,Fernandina Beach
60429,41.571617189105055,-87.68399733501946,Hazel Crest
13617,44.588580132365784,-75.15055877174416,Town of Canton
81635,39.44079131428571,-108.0360333,Garfield County
37230,,,
28408,34.027151,-77.894632,Carolina Beach
74128,36.14521888693182,-95.85068218579545,Tulsa
28163,35.228066966929134,-80.42207881417323,Stanfield
26041,39.92110782192513,-80.73808936951872,Moundsville
77087,29.6848070914446,-95.29062501827957,Houston
47244,39.22127476666667,-85.66940206666666,Decatur County
70744,30.510762079746836,-90.65515568164557,Livingston Parish
78942,30.181468381218274,-96.93026451522843,Giddings
74005,36.5172683,-95.8898937,Washington County
19520,40.15665609432624,-75.81218432198581,West Nantmeal Township
65084,38.42222135466667,-92.84357682311112,Versailles
42410,37.27313601136364,-87.51092338863636,Earlington
46082,,,
55423,44.880024171892565,-93.29352669431606,Richfield
73742,36.10533964318182,-97.89912523863636,Hennessey
77575,30.063639192771085,-94.77402943212851,Liberty
70512,30.414769875728155,-91.94385900776699,St. Landry Parish
62979,37.79645008125,-88.260043228125,Ridgway
03047,42.94374112,-71.85734824,Greenfield
31534,31.488405990909094,-82.84721869090909,Douglas
12461,41.9036421625,-74.25075709891732,Town of Olive
12989,44.49704287651869,-74.07796501051402,Town of Franklin
84645,39.821746225,-111.8452018375,Juab County
78363,27.50413626742857,-97.86087159142856,Kingsville
78573,26.258591764864864,-98.3119515054054,Palmhurst
56334,45.623521593069306,-95.37367845,Pope County
74016,36.53184448255033,-95.45188332348992,Rogers County
33623,,,
44056,41.31511039673913,-81.50665496992754,Macedonia
42127,37.123312733146065,-85.94174916404494,Barren County
49093,41.95828672751004,-85.64495129076306,Fabius Township
92703,33.74766206147268,-117.90446250224922,Santa Ana
47902,40.4129941,-86.8933457,Lafayette
59274,47.828886,-105.428706,McCone County
91008,34.1549706,-117.9661488,Bradbury
04271,44.2621087,-70.4975934,Paris
28775,35.016528855555556,-83.32092206666667,Macon County
38355,35.786009368181816,-88.76926138787879,Madison County
54128,44.859765997500006,-88.79797811124999,Town of Red Springs
95374,37.32620820704226,-120.8694320546479,Merced County
91510,,,
81427,38.0313177,-107.67507506190476,Ouray
97708,43.907887,-121.438692,Deschutes County
20431,,,
63862,36.59417463571429,-89.61470703333333,Lilbourn
85392,33.47909300803395,-112.30950716139584,Avondale
24426,37.77667888267477,-80.00424853920973,Alleghany County
79538,32.55167386,-100.63533062,Fisher County
87827,34.29823932,-108.13418928,Catron County
07935,40.7424066,-74.443560075,Chatham Township
83848,48.6305409,-116.9469828,Bonner County
46741,41.21098461997254,-84.9655988726836,Grabill
15132,40.34270566049926,-79.84900823920705,McKeesport
82836,44.78762985,-107.44733425,Sheridan County
77613,30.05303265,-94.335980675,China
03057,42.89582464996091,-71.68111911548084,Mont Vernon
10303,40.63030730609097,-74.1587961404262,Richmond County
32694,29.78527046875,-82.161008996875,Waldo
18059,40.725210909147606,-75.53360137879419,North Whitehall Township
32531,30.841055748369563,-86.73389819619565,Okaloosa County
25706,,,
73125,,,
32245,,,
04576,43.82035212264151,-69.66583131194969,Southport
30079,33.78956182189781,-84.25888648029198,DeKalb County
18016,40.62989964,-75.3384113,Freemansburg
31771,31.25286447553192,-83.67890456808512,Colquitt County
29148,33.556041973333336,-80.35777638333333,Clarendon County
04416,44.605614257287044,-68.77333657771499,Bucksport
41141,38.60617136666667,-83.17119513333334,Lewis County
73728,36.75376307068966,-98.35535027413792,Cherokee
54748,45.06510841132075,-91.27321567169811,Town of Eagle Point
62822,37.97445968947368,-89.05573130526317,Christopher
36340,31.03393990425532,-85.88186391702128,Geneva
94578,37.70373956598029,-122.1232352969553,Alameda County
81076,38.282083,-103.634054,Crowley County
15417,40.018921187813625,-79.90476794802868,Brownsville
24351,36.578479605263155,-80.76527477894737,Carroll County
73122,35.51918040566802,-97.61522483846154,Warr Acres
85303,33.52777929827624,-112.21935169045302,Glendale
91752,33.97188380251397,-117.55481214748605,Eastvale
75189,32.98421330511006,-96.29557135707547,Royse City
44452,40.95092272857143,-80.67633464805195,Mahoning County
13756,42.006575076496674,-75.11611617028825,Town of Hancock
15421,39.8472337,-79.60589565,Wharton Township
38311,35.446715704347824,-88.12560689130434,Decatur County
32530,30.58372835,-87.03455205,Santa Rosa County
14435,42.728695752104976,-77.68778990120285,Town of Conesus
19381,39.99910915,-75.6181751,West Whiteland Township
20168,38.81432775,-77.6422762,Haymarket
05822,44.747877944368604,-72.16244088896474,Barton Village
21139,39.4108019,-76.6446372,Baltimore County
78061,28.89957353278237,-99.0742501906336,Frio County
75653,32.332051,-94.619904,Rusk County
31076,32.55735238571429,-84.09353252857143,Reynolds
36507,30.876682651193057,-87.7815087954447,Bay Minette
45204,39.10072396758242,-84.57082920934066,Cincinnati
93641,36.67107406666667,-119.03920823333333,Fresno County
48886,43.42010725043478,-85.1619799052174,Belvidere Township
35905,33.94144765418994,-85.93481267318435,Glencoe
53008,,,
96097,41.71946272096774,-122.6398098451613,Yreka
62013,38.9402912,-90.60220245,Calhoun County
71046,32.18441781617647,-93.92892617058823,Keachi
52338,41.83242968813559,-91.67744376610169,Jefferson Township
36441,31.019485817283954,-87.2481935271605,Flomaton
73139,35.3942598412151,-97.52334051461412,Oklahoma City
77954,29.09046279672727,-97.28668500436363,Cuero
84535,37.87659940555556,-109.35542848333333,San Juan County
71295,32.15622924283154,-91.70855931200717,Winnsboro
49721,45.605693693959104,-84.47695519033456,Inverness Township
05463,44.87427298421053,-73.33816506842105,Isle La Motte
620102158,,,
22172,38.55353163461538,-77.33631688461539,Triangle
01096,42.40080096923077,-72.73916739230769,Williamsburg
190962352,,,
12082,42.767664875,-73.43458755,Town of Grafton
02534,41.67666025,-70.61542875,Bourne
760152812,,,
77551,29.27151315983456,-94.8385858804228,Galveston
77704,,,
39470,30.800176839295776,-89.54873790323944,Pearl River County
06417,41.375512615377126,-72.44818362622871,Deep River
10472,40.829767533225414,-73.86880987764063,The Bronx
38302,35.6892764,-88.8567988,Jackson
01505,42.349744319047616,-71.72744250476191,Boylston
95010,36.97689686181818,-121.95991533454544,Capitola
13856,42.18146269607173,-75.14217887475093,Town of Walton
05089,43.46659293605948,-72.42015002314126,Windsor
66025,38.93433119882583,-95.09596182485323,Eudora
852624808,,,
32055,30.218663295357107,-82.66578096351563,Columbia County
60951,40.915004439473684,-87.76225190526316,Iroquois County
52228,41.91649387247707,-91.79976092018349,Linn County
72686,35.788405,-92.84326,Searcy County
15530,39.93524019198312,-78.93727593291139,Brothersvalley Township
12413,42.30776028553792,-74.01796433380365,Town of Cairo
47357,39.765154568918916,-85.1552521581081,Wayne County
28670,36.214399785074626,-80.93253133731343,Wilkes County
28673,35.58791444179104,-80.99833001231343,Catawba County
35045,32.83319665699209,-86.64075155277045,Clanton
26287,39.097863575438595,-79.68090974736842,Parsons
14082,42.655229479807694,-78.38491114423077,Town of Java
11980,40.839707698887125,-72.91947404589295,Yaphank
19089,,,
76608,,,
50047,41.488186158793965,-93.4894307959799,Carlisle
19529,40.626206392307694,-75.83569868173078,Albany Township
071122117,,,
088311115,,,
07088,40.71653511666667,-74.2874737254902,Union
07112,40.71459005672514,-74.21018033333334,Newark
78715,30.1992174,-97.8085935,Austin
752524208,,,
468046923,,,
303092725,,,
232297740,,,
981102648,,,
920082045,,,
208176328,,,
900772730,,,
117801014,,,
809207679,,,
97327,44.3886436,-122.98774575,Brownsville
20848,,,
47469,38.5934121530303,-86.60987382954545,Orange County
974051456,,,
55395,44.962101525,-94.05362609021739,Winsted
02812,41.473008,-71.660094,Richmond
59875,46.3474661,-114.1541231,Ravalli County
49406,42.64290209012346,-86.2074045037037,Douglas
07103,40.73885722567568,-74.18969255675675,Newark
31023,32.20224924006024,-83.18916876355422,Eastman
89110,36.170392276,-115.067424178,Las Vegas
90078,,,
13212,43.129200573764095,-76.13829241863617,Village of North Syracuse
970061931,,,
62902,37.684593132941174,-89.15977461588236,Jackson County
53937,43.369377926086955,-90.16461420652173,Town of Bear Creek
012013329,,,
53533,42.97244192893258,-90.13845540758427,Dodgeville
36250,33.76600580105263,-85.89338709473684,Calhoun County
14526,43.14206990769473,-77.45789815391569,Town of Penfield
08108,39.91562865755396,-75.06374326762591,Collingswood
93539,34.687959,-118.174328,Lancaster
62089,39.13353285675676,-89.49226347027027,Taylor Springs
78109,29.50467240103448,-98.31709564172414,Converse
77031,29.661625559375,-95.53963573203124,Houston
15502,40.050125125,-79.23792240833333,Jefferson Township
15131,40.339980035519126,-79.80651174371584,White Oak
17063,40.72081783913044,-77.53128035724637,Armagh Township
13902,42.090132925,-75.954188425,Town of Vestal
05344,42.869901176,-72.732628804,Marlboro
74365,36.296841455737706,-95.14877958032787,Salina
33033,25.485148531660002,-80.43173978597267,Leisure City
94026,,,
32832,28.38930606923077,-81.23342109038461,Orange County
03258,43.26057960777778,-71.38267244777778,Chichester
80937,,,
53207,42.98259898149345,-87.89949005238132,Bay View
68620,41.68662403333333,-98.00500913333333,Albion
39649,31.329292,-90.4114852,Pike County
24543,,,
03748,43.608057625477706,-72.12726853503185,Enfield
01452,42.48043664,-72.00736617000001,Hubbardston
45315,39.84065839455782,-84.31159033945579,Clayton
03907,43.251420879767565,-70.6002114195457,Ogunquit
18324,41.14129087822581,-74.99952134354838,Lehman Township
44119,41.58938208975265,-81.54793037526501,Euclid
90029,34.0882217734104,-118.29026526300578,Los Angeles
20837,39.13970531438972,-77.40786176736617,Poolesville
08028,39.7130745222561,-75.10743673536585,Glassboro
49412,43.46426150505618,-85.95132638033708,Fremont
82331,41.45443777142857,-106.80824785357143,Saratoga
65072,38.25151105789474,-92.72383491954886,Morgan County
76945,31.902016354304635,-100.49542051655628,Robert Lee
82941,42.86591502207463,-109.86961836805818,Pinedale
68755,42.956335,-99.094868,Boyd County
39056,32.34396075564202,-90.32771116731517,Clinton
92378,34.2296376,-117.224036,San Bernardino County
49636,44.89045228604651,-85.98567898372093,Glen Arbor Township
49265,42.022590815294116,-84.16448361176471,Cambridge Township
38201,36.12260669589041,-88.52141827424657,McKenzie
40210,38.2310784366936,-85.78946928743106,Louisville
24471,38.30262868571429,-78.79428766428572,Rockingham County
44210,41.1759682,-81.61576645,Bath Township
90007,34.03073667388889,-118.27941089166667,Los Angeles
32404,30.14611083509934,-85.58457327620194,Callaway
61068,41.930751807088605,-89.06613328329114,Rochelle
19123,39.96434628062201,-75.14679151985646,Philadelphia
71409,31.3113212327957,-92.67504787956989,Rapides Parish
523029378,,,
10176,40.755884,-73.9790079,Manhattan
79012,35.191980969999996,-102.06575961,Potter County
11010,40.70138623220027,-73.6750630395386,Franklin Square
54854,46.63222597710843,-91.69485244216868,Town of Maple
48002,42.933126933333334,-82.89719519777778,Saint Clair County
17801,40.861562424022345,-76.78201251564245,Sunbury
97503,42.47201918181818,-122.82805077532468,Jackson County
21561,39.50240841136364,-79.22725288787879,Garrett County
96795,21.33584802,-157.70657777,Waimanalo Beach
49274,41.84771568642857,-84.77328197214285,Reading Township
97038,45.14961132301887,-122.58039263819707,Molalla
01245,42.191944414285715,-73.21620017142857,Monterey
10529,,,
60064,42.32448942613636,-87.85947071988636,North Chicago
10107,40.76630695,-73.98245095,Manhattan
87562,35.4896069,-105.67488,San Miguel County
23325,36.814240835792695,-76.2388319261652,Chesapeake
75493,33.164571294285714,-95.11256677428571,Winfield
03331,,,
95570,41.088826254000004,-124.131305554,Humboldt County
95150,37.328513,-121.970344,Santa Clara
03837,43.45879273333333,-71.34739713809523,Gilmanton
65233,38.95595418948864,-92.74367416647728,Boonville
49654,45.02337492903226,-85.75933649354837,Leland Township
90295,,,
18074,40.30663861323529,-75.4988884882353,Upper Frederick Township
95223,38.25726008678032,-120.32870078225264,Calaveras County
11692,40.593845242734226,-73.79678355219885,Queens
48842,42.64468124882075,-84.52154433349057,Holt
94975,,,
58361,47.763881,-98.337939,Nelson County
92842,33.7836712,-117.9231959,Garden Grove
14441,42.69050646792453,-76.95822641698113,Town of Torrey
14903,42.12964585885325,-76.84243906436731,Town of Horseheads
46394,41.678888277064225,-87.49787240825688,Whiting
93532,34.666643,-118.408048,Los Angeles County
67420,39.44322607083333,-98.05682073055556,Mitchell County
25427,39.5481107015748,-78.06831465826771,Berkeley County
11959,40.82442836883298,-72.60410985939902,Village of Quogue
10163,,,
24091,36.91555928966292,-80.3227212964045,Floyd County
28034,35.343480402660404,-81.18324281940532,Gaston County
80466,39.961734263157894,-105.50800472631579,Nederland
09119,,,
78537,26.172216170992364,-98.05113668587786,Donna
77083,29.69284842087912,-95.64811907197802,Harris County
80307,39.722068,-106.317759,Eagle County
47138,38.67826164094488,-85.6203095047244,Scott County
34116,26.185005356382977,-81.70606384148937,Collier County
31999,32.4680074,-84.96425285,Columbus
07837,40.9714726,-74.6350597,Hopatcong
69149,41.185037,-102.667917,Cheyenne County
18020,40.667119132871974,-75.33016104083045,Bethlehem Township
16057,41.049712795950704,-80.05003227957747,Slippery Rock Township
45431,39.760865013235296,-84.09474502828054,Beavercreek
48638,43.421597984455964,-84.0137506507772,Saginaw Charter Township
12936,44.288139398193756,-73.38155352068965,Town of Essex
53059,43.27596168489583,-88.51373078020833,Town of Ashippun
49240,42.260302865639815,-84.19575331327015,Grass Lake Charter Township
05154,43.14575555384616,-72.50910596923077,Rockingham
19145,39.92286218907363,-75.1758061391924,South Philadelphia
95450,38.49541774285714,-123.19129482857144,Sonoma County
46301,41.686122397435895,-86.98166796923077,Beverly Shores
80467,40.266868233333334,-106.92523583333333,Routt County
97041,45.46786842857143,-121.61568254285714,Hood River County
31308,32.18549279844961,-81.48162981085272,Bryan County
89018,36.5828395125,-115.6652208,Clark County
94580,37.6950709392022,-122.12311399711142,Alameda County
77325,,,
28091,34.9650714,-79.96497078571429,Anson County
92652,33.5442638,-117.782034,Laguna Beach
47402,,,
54169,44.178930129545456,-88.28071953636363,Sherwood
40940,36.6380295,-83.94162792,Bell County
85640,31.585464,-111.047299,Santa Cruz County
52728,41.457514779166665,-90.72610747083334,Buffalo
11713,40.77683379424393,-72.94547852196273,North Bellport
27544,36.199189145238094,-78.41857010476191,Vance County
19702,39.644616551997196,-75.6956710504555,New Castle County
30317,33.750208968117974,-84.33373377317416,Atlanta
12060,42.409689345463505,-73.49797320759369,Town of Canaan
33256,38.59817,-89.7520517,Summerfield
29633,,,
19078,39.8772570507772,-75.3219913373057,Ridley Park
07679,,,
30568,34.952196634065935,-83.40379427142857,Rabun County
94946,38.06275125,-122.6993379,Marin County
02661,41.674161,-70.039935,Harwich
956032540,,,
42309,,,
52726,41.49343682684564,-90.75919178926175,Buffalo Township
63120,38.68927042746114,-90.26267530414508,Saint Louis
15370,39.89058049484536,-80.16791344793815,Morrisville
75555,33.0042483,-94.07470185,Cass County
04332,,,
11243,,,
13077,42.677868167559524,-76.19491394031085,Town of Homer
78708,,,
95460,39.3253092239726,-123.80706761643836,Mendocino County
60042,42.277989823753465,-88.21364097285318,Island Lake
71282,32.40270006504855,-91.17623845582524,Madison Parish
941104546,,,
81523,38.98354772169811,-108.77413089150944,Mesa County
20687,38.07993889375,-76.34480125,Saint Mary's County
46224,39.798834747870615,-86.25615379745733,Speedway
83101,42.01851559514925,-110.54659654813433,Lincoln County
29336,,,
60208,42.05505373333333,-87.67717776102565,Evanston
86510,36.10518306,-110.13462872000001,Chinle Agency
61841,40.042413059302326,-87.81694523953487,Vermilion County
92308,34.47631483125,-117.2179076375,Apple Valley
71957,34.555382441847826,-93.57252151413044,Montgomery County
50233,41.59369292063492,-94.21477161904762,Union Township
27205,35.66622356049662,-79.82882928600452,Randolph County
33837,28.20486115089514,-81.61020072173912,Polk County
46601,41.673353992149295,-86.2554919993565,South Bend
52042,42.65765406571429,-91.38402781238096,Clayton County
02659,41.6794393,-70.0239922,Chatham
19154,40.090373043782385,-74.97658202772021,Philadelphia
05146,43.173036065384615,-72.59330484615384,Grafton
76548,31.06771945754098,-97.65591844344262,Harker Heights
14609,43.173476250831385,-77.56241931750671,City of Rochester
71047,32.31239988110236,-93.88938804370079,Caddo Parish
96103,39.77724521538462,-120.62386906153846,Plumas County
77489,29.59946567518911,-95.51463552950077,Missouri City
35502,33.85177956666667,-87.29043873333333,Jasper
73090,35.39233126875,-97.9413624875,Union City
20779,38.76200279555555,-76.57102370555556,Anne Arundel County
53201,43.0466253,-87.9060587,Milwaukee
89031,36.25791083888889,-115.15498381666667,North Las Vegas
80471,39.932736,-105.438006,Gilpin County
76443,32.12646243818182,-99.16558849454546,Cross Plains
53212,43.069144282878824,-87.90827071691962,Harambee
95364,38.188703436021505,-119.99442799534049,Tuolumne County
29918,32.75266855510204,-81.23674054285715,Estill
90604,33.94066096972256,-118.00518392086852,Whittier
76201,33.21533844526749,-97.13800700690443,Denton
75241,32.66728964849579,-96.7796552648616,Dallas
24521,37.59568467635147,-79.06421593276986,Amherst County
85339,33.36727771555928,-112.17977774091327,Phoenix
23901,37.299708122706065,-78.39613127231726,Farmville
49249,42.04452885103448,-84.43837633793103,Somerset Township
27509,36.137403135433075,-78.76533498425196,Butner
95421,38.53257774285714,-123.0857599142857,Sonoma County
07980,40.67435169354839,-74.49264652580645,Long Hill Township
14881,42.39686186621622,-76.35459732837838,Town of Caroline
13835,42.38341748578313,-76.1651075959036,Town of Richford
59833,46.583455980000004,-114.07510958499999,Ravalli County
82839,44.90878052,-107.1646279,Ranchester
00801,18.3405162,-64.9268025,Charlotte Amalie
37387,35.2501868375,-85.7441237875,Grundy County
68781,42.03605444444444,-97.78938655555555,Madison County
21223,39.28656123466646,-76.64791714557013,Baltimore
78161,29.277250925,-98.054725875,Wilson County
06279,41.88068848843137,-72.26821128602941,Willington
04652,44.837759868016875,-67.0211849700422,Lubec
33604,28.015692456612904,-82.45676319435485,Tampa
41804,37.14337484736842,-82.9905386,Letcher County
40370,38.39655718220859,-84.54110437668712,Sadieville
30294,33.64994248620415,-84.27650631403509,DeKalb County
94158,37.77077309827587,-122.39041049310346,San Francisco
30313,33.76197650820353,-84.3964572186916,Atlanta
04660,44.34577793131822,-68.36101637052897,Mount Desert
46390,41.42693369461538,-86.8725508723077,Wanatah
97130,45.717592959375,-123.930876903125,Manzanita
13605,43.814881996928456,-76.05568252391136,Town of Adams
91210,34.14414095675676,-118.25676598918919,Glendale
03217,43.7003417,-71.6365384078125,Ashland
98148,47.441238685544086,-122.3286591813344,Burien
96713,20.75429132307692,-155.99244063846155,Maui County
96150,38.91575194326376,-119.97655055502847,El Dorado County
03897,43.907682,-71.339905,Tamworth
95633,38.8491789,-120.8563006,El Dorado County
28745,35.52670332075472,-82.97152635660377,Haywood County
27016,36.43212386066667,-80.21650837733333,Stokes County
11935,41.014611751307456,-72.47824774976603,Cutchogue
55411,45.00033177923404,-93.3027896333617,Minneapolis
86402,35.28271315,-113.9720489,Mohave County
16901,41.755857464197526,-77.27405025925925,Charleston Township
62868,38.701851716312056,-88.24007120992907,Richland County
61443,41.24255813801066,-89.93103868117228,Kewanee
200102638,,,
23664,37.05710943821416,-76.29474867226016,Hampton
00716,17.999993294915253,-66.61062933050847,San Antón
80816,38.86480064137931,-105.27408131034483,Teller County
49055,42.36709694722222,-85.86446293611111,Pine Grove Township
70179,,,
97458,43.0358229,-124.049973,Coos County
28779,35.365069357030016,-83.2131868492891,Jackson County
95067,,,
59821,47.1615798,-114.08155369545455,Arlee
49613,44.49531397142857,-86.22768404285715,Arcadia Township
01756,42.117037805882354,-71.53639577647058,Hopedale
39648,31.226352107254904,-90.43814103313726,Pike County
55705,47.4812583127907,-92.24699162325581,White Township
19139,39.96066979912023,-75.220357385044,Philadelphia
62028,38.9598258125,-90.349302696875,Jersey County
75215,32.761421668018016,-96.77261796936936,Dallas
04681,44.16678043842795,-68.66542935709606,Stonington
98384,48.4951675,-122.2797384,Sedro-Woolley
08882,40.445403612455515,-74.37974896370108,South River
35765,34.68230876567164,-85.80650718656716,Jackson County
26506,39.64594623913044,-79.96152983913043,Morgantown
55388,44.95602806223405,-93.84970943404255,Watertown Township
97523,42.152948043181816,-123.64446739318183,Cave Junction
92173,32.558539206912776,-117.05210923369526,San Ysidro
12865,43.202219047123435,-73.34571678232219,Town of Salem
98548,47.4045198492126,-123.1472883468504,Mason County
20106,38.688017947715736,-77.98336704365482,Rappahannock County
49037,42.32612357532467,-85.24211546883117,Springfield
24171,36.64641494328358,-80.24002083980099,Patrick County
81230,38.55618729022901,-106.93926546061068,Gunnison County
49022,42.1082445246968,-86.42106610452039,Benton Heights
01104,42.13167019354839,-72.57072129032258,Springfield
68134,41.29431105534274,-96.05539408578629,Omaha
94564,37.994857968888894,-122.28780125333333,Pinole
80814,38.961119512,-105.11258343066666,Teller County
21838,38.02124591388889,-75.74529894722222,Somerset County
49627,45.10741113684211,-85.35349153684211,Torch Lake Township
43567,41.56224286523077,-84.15123014338461,Wauseon
79373,33.194161084916196,-101.80395955223464,Lynn County
11801,40.76221791532339,-73.52302684326801,Hicksville
61859,40.153390567368426,-87.99103367894736,Champaign County
94302,,,
53049,43.86976321454545,-88.30848726545454,Town of Taycheedah
85297,33.2771793765548,-111.72143698203452,Gilbert
77282,,,
27957,36.069418692105266,-76.76387996578947,Bertie County
27541,36.196793181438515,-79.07492850800465,Orange County
20577,,,
62504,,,
97009,45.43057306766073,-122.34215396123162,Clackamas County
20185,38.963283425,-77.8989145,Fauquier County
84305,41.919550845353164,-112.0501596479554,Clarkston
12516,42.1128856790976,-73.56170106298343,Town of Copake
06093,42.00881461277906,-72.73335478791378,Suffield
11247,,,
04657,45.00136795595238,-67.39652768928572,Cooper
18610,41.052695342975206,-75.52929558429753,Tunkhannock Township
55434,45.16197788675497,-93.2502510207947,Blaine
03278,43.282092803067485,-71.81717479693252,Warner
61278,41.5790205,-90.350167025,Rapids City
04444,44.74049301391863,-68.87969096632762,Hampden
75150,32.81243258190053,-96.6203211384037,Mesquite
78609,30.768988364,-98.454338392,Llano County
55806,46.772269274914095,-92.12606586597938,Lincoln Park
49880,46.06220433103448,-87.20235664137931,Maple Ridge Township
32179,29.095019650446428,-81.88305149553572,Marion County
08232,39.395930384065935,-74.52651557582418,Pleasantville
88038,32.97013,-108.564584,Grant County
47118,38.30214256036036,-86.4743159072072,Crawford County
20602,38.60039331739131,-76.90174129744246,Waldorf
36087,32.4207431,-85.7464086,Macon County
61874,40.057846123419694,-88.2481207561658,Savoy
75041,32.881745570477385,-96.64820231319095,Garland
70403,30.48427029982456,-90.48099597210526,Hammond
06610,41.201491762099984,-73.16867239325377,Bridgeport
02054,42.16896909411765,-71.36028180588235,Millis
05036,44.01819109056604,-72.56800516792453,Brookfield
49930,47.12987196767676,-88.5886853030303,Hancock
10545,41.179031,-73.83197,Town of Ossining
40763,36.689957875,-83.939496475,Whitley County
04259,44.2246576,-70.01356730353724,Monmouth
63468,39.692391432098766,-92.0418688654321,Shelbina
05677,44.3867810043257,-72.71737857862595,Waterbury
17236,39.79990300555556,-77.93752975416666,Montgomery Township
65791,36.5233665880597,-91.54289974179105,Thayer
79851,31.17854405084746,-105.35873406779662,Hudspeth County
13323,43.06085383830479,-75.37505396377628,Town of Kirkland
44036,,,
04541,43.888541654871794,-69.48829660358975,Bristol
70748,30.81422986329114,-91.20910129873418,Jackson
98570,46.582450476422764,-122.70587847235772,Lewis County
33307,,,
48189,42.42109690687961,-83.78099311351352,Northfield Township
27953,35.893486063255814,-75.77151495209303,Dare County
33124,25.71778766,-80.27891344,Coral Gables
219212027,,,
60177,41.99287047149758,-88.31009208719807,South Elgin
78158,,,
17022,40.15650994982877,-76.6035352344178,Elizabethtown
98139,,,
55319,45.46678722955665,-93.94169656009852,Clear Lake Township
92344,34.39660595625,-117.402727625,Hesperia
84317,41.24969376470588,-111.76394146176472,Weber County
03874,42.88535637633929,-70.86478765982143,Seabrook
21203,39.2922371,-76.6051988,Baltimore
75168,32.35902118571428,-96.93112021428571,Ellis County
33128,25.776506415636824,-80.20649033871373,Miami
53184,42.528742070297035,-88.59104728118812,Walworth
39730,33.842656181904765,-88.54920790190477,Monroe County
04352,44.46740515774411,-69.96489113501683,Mount Vernon
01501,42.195956890625,-71.845575803125,Auburn
14551,43.22627350921212,-77.04715557979799,Town of Sodus
71903,,,
67581,37.969554333333335,-98.408486044,Reno County
19970,38.55654390531401,-75.10549444033816,Sussex County
49621,44.874568136363635,-85.77626824363635,Centerville Township
12581,41.89423446733288,-73.69385332026188,Town of Stanford
49408,42.5788933659919,-86.14696223238866,Ganges Township
45415,39.834949813988096,-84.25891050595239,Clayton
75692,32.4720296125,-94.060867785,Waskom
54001,45.31955916570513,-92.37905333076922,Town of Lincoln
77026,29.79464393805147,-95.33235654264706,Houston
03901,43.28838275949449,-70.85022406351264,Berwick
32129,29.13801305041579,-81.02463153318305,Port Orange
97385,44.88486596,-122.73433288,Marion County
28748,35.651816161352656,-82.71825090676327,Buncombe County
12760,41.88974044249201,-75.10191386230032,Town of Hancock
16940,41.97878,-77.237104,Nelson Township
14803,42.25444855016949,-77.78087958372882,Town of Alfred
02117,42.3498552,-71.07571495,Boston
56464,46.768501214044946,-95.10297250224718,Wadena County
96799,-14.28860655,-170.695769025,Fagatogo
00676,18.398402707692306,-67.09020268846155,Cuchillas
76527,30.808087039726026,-97.78529766712329,Williamson County
87024,35.64070384705882,-106.73179761764706,Sandoval County
96754,22.206953,-159.40042693333334,Kilauea
92702,,,
09053,,,
74106,36.17981544452247,-95.9869110119382,Tulsa
97423,43.15710414390244,-124.17244175975608,Coos County
50527,42.96109654375,-94.78724805,Palo Alto County
45157,38.968985062529185,-84.26331757797665,Ohio Township
75651,32.6498478,-94.5575157,Harrison County
96115,41.643546,-120.203139,Modoc County
81130,37.80927902142857,-106.906534075,Mineral County
20613,38.692229220538835,-76.85418814844297,Brandywine
48624,44.052450131013615,-84.45659669652042,Gladwin Township
78634,30.54355418548523,-97.55767043687763,Hutto
04631,44.91133117258193,-66.99817715603517,Eastport
54768,44.95821711696113,-90.94065469540637,Stanley
01026,42.458612953846156,-72.89927039230768,Cummington
34660,28.0647672875,-82.7820124,Pinellas County
24595,37.5552369,-79.0757636,Amherst County
35204,33.5184435155477,-86.84040024717314,Birmingham
97362,45.06897140666667,-122.73999172,Marion County
12531,41.531707060740736,-73.67102005602693,Town of Pawling
78638,29.65861557368421,-97.80656440350877,Guadalupe County
05875,44.706112680909094,-72.25514972727272,Glover
32572,30.63395853333333,-87.008565,Santa Rosa County
19490,40.1973366,-75.34743682857143,Worcester Township
82244,41.885736,-104.296358,Goshen County
12724,41.847445,-74.944276,Town of Callicoon
34446,28.756896948013246,-82.5333085544702,Citrus County
61472,41.096491076666666,-90.38501838444444,Knox County
60453,41.7139527995572,-87.74423390841328,Oak Lawn
97076,45.4934033,-122.8734452,Washington County
02051,,,
96143,39.2378607,-120.02522888823528,Placer County
333087658,,,
62046,38.89350177846154,-89.84228413461538,Hamel
15762,40.59873912439024,-78.82999834878049,Barr Township
61230,41.7692121147541,-90.20646092786886,Whiteside County
19075,40.10970871617647,-75.18942452058823,Springfield Township
45251,39.24577162520776,-84.58888643878116,Colerain Township
96708,20.868513775,-156.21898710833332,Maui County
81631,39.657020173333336,-106.82773979,Eagle
97451,43.81970330952381,-123.2609299079365,Lane County
11209672,,,
33809,28.1316239002008,-81.95284458915663,Polk County
38001,35.79490818289474,-89.13159537105264,Crockett County
53588,43.17368802085308,-90.04891936966824,Spring Green
96722,22.14568152888889,-159.38615481333335,Kauaʻi County
98418,47.233065290588236,-122.43845801176472,Tacoma
96755,20.23431932857143,-155.8065897857143,Kapaau
21632,38.699787239610394,-75.77374762532467,Federalsburg
54451,45.15130838795454,-90.31730167454546,Town of Medford
02663,41.913639068421055,-69.99859582894736,Wellfleet
34950,27.445386965180468,-80.33441508174097,Fort Pierce
63115,38.67226841522436,-90.24204888669873,Saint Louis
23513,36.88810152986923,-76.23986932099105,Norfolk
72718,36.25792143799058,-94.2195625765306,Cave Springs
11786,40.94661785051584,-72.89383027048636,East Shoreham
07104,40.75995019681697,-74.16823986419098,Newark
08804,40.64962985,-75.08731242678572,Bloomsbury
92166,,,
30088,33.75431604337349,-84.18065474959839,DeKalb County
67149,37.52181230277778,-97.63015270555556,Viola Township
44258,,,
66102,39.10937993166515,-94.66285466178344,Kansas City
24314,37.15571986060606,-81.19679527878787,Bland County
85323,33.43497830734723,-112.3178206181076,Avondale
97293,,,
73020,35.47237037807309,-97.32282660299003,Choctaw
66402,38.91995021784841,-95.81938302143439,Shawnee County
11242,40.693294,-73.9909144,Brooklyn
35563,33.97494709339623,-87.89877922264151,Guin
70730,30.817279125,-91.09073209642857,East Feliciana Parish
00830,18.329641239271258,-64.75130434008098,Saint Thomas - Saint John District
78355,27.227898790322577,-98.14363873963133,Falfurrias
27890,36.41960627875,-77.60478846687501,South Weldon
15644,40.334237329238334,-79.61373112899263,Jeannette
17889,40.89238758333333,-76.90200359444444,Union Township
61415,40.65506068086957,-90.43143720695652,Fulton County
13078,42.98776644174638,-76.08109648214374,Town of De Witt
70807,30.530621033333333,-91.17417700217865,Baton Rouge
96929,13.524911533333334,144.84143277777775,Dededo Municipality
93225,35.04159464615385,-117.75646342820514,Kern County
48631,43.67768319101124,-83.99202122921349,Kawkawlin Township
76084,32.4393095035949,-97.0793552028218,Venus
89041,35.98141108,-115.86769835999999,Nye County
24127,37.49689571935484,-80.12586757096774,Craig County
13625,44.5370740711731,-74.93196781158798,Town of Colton
10546,41.19709204681934,-73.79685842977099,Millwood
49010,42.52828584176073,-85.86831358284425,Allegan Township
46701,41.36403704074074,-85.4449893993827,Noble County
12517,42.1262977722807,-73.51967450421053,Town of Copake
83245,42.7899947,-112.225854725,Bannock County
78642,30.660316546358793,-97.87012786483126,Williamson County
03580,44.20304762932331,-71.74332792330827,Franconia
05051,44.08300983250689,-72.09881435261708,Newbury
60139,41.921610808093995,-88.07903725587467,DuPage County
18327,40.985347850537636,-75.1449325483871,Delaware Water Gap
20725,39.1056662,-76.8339071,Howard County
90018,34.03084060339806,-118.31769066165049,Los Angeles
97525,42.47190168888889,-123.05554723333333,Jackson County
33183,25.700739584885874,-80.40956571103024,Miami-Dade County
98353,47.554018,-122.545222,Manchester
48741,43.40340253529411,-83.21729329411764,Koylton Township
08618,40.23489257788565,-74.77535167562029,Trenton
60162,41.87298746312849,-87.89761647486033,Hillside
48428,42.936375266666666,-83.14266170666667,Dryden Township
95017,37.01112716470588,-122.19426528823529,Santa Cruz County
05757,43.46866879724138,-73.13013337655173,Middletown Springs
22733,38.34629800568182,-78.0591959125,Culpeper County
46131,39.48530876358382,-86.05488629725434,Franklin
31029,33.02575513471338,-83.93709884808916,Forsyth
72335,35.01598723905882,-90.78387015647058,Forrest City
12062,42.52595778532934,-73.50053056487026,Village of East Nassau
10475,40.87716718876872,-73.82720253053245,The Bronx
48107,42.3284295,-83.60455187999999,Superior Charter Township
24485,38.25776463496144,-79.32900497840616,Augusta County
85735,32.164304390909095,-111.14703901818183,Pima County
13207,43.019271141935484,-76.16481435156547,City of Syracuse
91850,,,
45817,40.88849316178344,-83.89692241146497,Bluffton
01224,42.0990392,-73.2333868,New Marlborough
35824,34.65232159404762,-86.73480873571428,Madison County
03221,43.07101578507463,-72.09201176865672,Stoddard
45106,38.97635651047331,-84.08787988499496,Tate Township
75207,32.78819968067484,-96.82071540122699,Dallas
17532,39.85952867021276,-76.29529654893616,Martic Township
98358,48.05008008109091,-122.69506437212121,Jefferson County
55763,47.329401366666666,-92.22441211805555,Saint Louis County
33584,27.991585878761057,-82.28856317769912,Hillsborough County
23109,37.435875521818176,-76.32162546181819,Mathews County
83320,43.30769296891616,-113.94506041676891,Carey
30721,34.7795650303627,-84.93639708404146,Whitfield County
94976,44.785535,-69.711614,Skowhegan
60968,40.67260045,-88.11775803636364,Iroquois County
84331,41.977328,-112.2414053,Portage
01073,42.23594945,-72.7098263875,Southampton
85009,33.46440912593323,-112.12857155935858,Phoenix
83334,43.10847175,-114.338304775,Lincoln County
80863,38.99924770890538,-105.06079116322408,Woodland Park
35111,33.28241473623694,-87.09413112090593,Tuscaloosa County
72730,36.038041254433175,-94.25334433561976,Farmington
89173,,,
12122,42.55624760128064,-74.31753534544457,Town of Broome
32907,28.013739850361013,-80.67009144359206,Palm Bay
76134,32.64670333591954,-97.33728503735632,Fort Worth
35747,34.49937415326087,-86.28856276684783,Marshall County
49709,45.028907322292994,-84.10524731656051,Hillman Township
53074,43.39728137231834,-87.88030422560554,Port Washington
81236,38.69990495,-106.22890111666666,Chaffee County
03280,43.16966892352941,-72.08799906911764,Washington
37821,35.96062420603813,-83.20103268951272,Newport
94931,38.32785377313433,-122.70267896119404,Cotati
76060,32.64609969162011,-97.21348629497206,Kennedale
24010,,,
72002,34.63441246916077,-92.4793063520728,Bryant
43723,39.96345280071942,-81.54424224604317,Byesville
20433,38.89987695,-77.043502475,Ward 2
90047,33.95239829343434,-118.30388704040404,Los Angeles
32461,30.28708465152838,-86.02807714170305,Walton County
46214,39.79118572506893,-86.28720002723513,Indianapolis
28225,,,
13073,42.58534667527366,-76.38314953245332,Town of Groton
97437,44.08511683127148,-123.37218778327606,Lane County
48180,42.23872620275081,-83.26330526329558,Taylor
84310,41.325885629148935,-111.81563684553191,Weber County
60714,42.02707349429081,-87.80925866146298,Niles
15552,39.802253933502534,-79.02266419949238,Summit Township
01510,42.41903014090909,-71.68424681818182,Clinton
13820,42.46105594164841,-75.05565619995826,City of Oneonta
04554,43.86318551533407,-69.50717418663746,Bristol
38080,36.230420670769234,-89.47471876615384,Lake County
47165,38.50313765116279,-85.99513465627908,Washington County
95039,36.804467434375,-121.78473129375,Moss Landing
77328,30.353554779797978,-95.17800969141415,San Jacinto County
94927,,,
63137,38.7490480352102,-90.21805650623581,Riverview
08031,39.868038435406696,-75.0917506861244,Bellmawr
20686,38.18986622,-76.42942236,Saint Mary's County
15148,40.39331621517857,-79.80278068928573,Wall
23110,37.53677496666667,-76.7836173,King and Queen County
05824,44.421381313333335,-71.78779137333333,Concord
94141,,,
23327,,,
01831,,,
72214,,,
85327,33.792187,-111.943908,Scottsdale
33983,27.010458096067417,-82.01864563342697,Charlotte County
85042,33.3750989399635,-112.03179301802919,Phoenix
14883,42.24029324758698,-76.48890570213244,Town of Spencer
21284,39.3966489,-76.5749234,Baltimore County
216453352,,,
29696,34.77555025611111,-83.0135813538889,Oconee County
12526,42.124208301473,-73.86378826999454,Town of Germantown
75040,32.92607894625789,-96.62676743940487,Garland
05764,43.51853656651786,-73.22909385267857,Poultney Village
97360,44.75226116,-122.48165252000001,Mill City
05352,42.767687654619564,-73.06398568940217,Stamford
86324,34.77144045,-112.057297125,Clarkdale
44509,41.10558254354243,-80.6939762206642,Youngstown
02575,41.405050145454545,-70.6690204,West Tisbury
12495,42.075790225783976,-74.23444469442508,Town of Woodstock
49416,42.51527683333333,-86.24125506666667,Ganges Township
97030,45.50713847595841,-122.430732523316,Gresham
92070,33.14138037135279,-116.69481583289125,San Diego County
27960,35.11242889189406,-75.97811209085073,Ocracoke
38078,,,
01366,42.49391842,-72.20125374,Petersham
63548,40.5300607125,-92.530583,Schuyler County
95466,39.09356235714286,-123.48073922857144,Mendocino County
66605,39.01443496843293,-95.64584638533918,Topeka
22920,37.99293264530201,-78.83798284060403,Nelson County
03464,43.09006578064516,-72.09160897096774,Stoddard
20135,39.10058698901099,-77.86878377582418,Clarke County
60442,41.41785151339286,-87.97690495714285,Manhattan
54082,45.07721555104167,-92.722655975,Town of Saint Joseph
78755,,,
49266,41.8262188,-84.54021368333333,Jefferson Township
14851,42.4399189,-76.5085422,Ward 1
70004,,,
65764,37.807001,-92.978692,Dallas County
61281,41.29757820272727,-90.50244547909091,Mercer County
76002,32.65849229779736,-97.09292843876652,Arlington
57349,44.0152771,-97.52757143333334,Howard
71068,32.22280014098671,-93.29979924478178,Red River Parish
12059,42.61448018729236,-74.05875511353821,Town of Berne
80038,,,
26260,39.096708425,-79.4549270875,Tucker County
65268,,,
02719,41.64326221081081,-70.89624868648649,Fairhaven
65326,38.1689265,-93.03153985,Camden County
40211,38.24244635747333,-85.81144495762697,Louisville
22610,38.8221094379562,-78.28657047445256,Warren County
95672,38.7076155,-120.97873045,El Dorado County
33838,28.020501204347823,-81.61889302065218,Dundee
60020,42.40708906258503,-88.18116914965987,Fox Lake
97111,45.297996510344824,-123.19626626206896,Yamhill County
24920,38.5521895,-79.7553444,Pocahontas County
32854,,,
27592,35.56341639278075,-78.68391510695187,Wake County
21520,39.62621585833333,-79.30733026071428,Garrett County
77050,29.896305111711712,-95.2726483981982,Harris County
04008,44.03514109229107,-69.8789875721902,Bowdoinham
98856,48.36442154375,-120.11680396875,Twisp
97019,45.51676197966102,-122.27079649142573,Multnomah County
12029,42.403486898199276,-73.42704464621849,Town of Canaan
66617,39.13191417015225,-95.64499931643206,Shawnee County
28718,35.154722713333335,-82.62901526666666,Transylvania County
60096,42.48124538241758,-87.82802169725275,Winthrop Harbor
12493,41.798943741176465,-73.96447609411764,Town of Esopus
28640,36.4091415125,-81.42691915285715,Ashe County
35020,33.40614627022697,-86.9515805176235,Bessemer
96779,20.9220441,-156.37318601666666,Paia
11214,40.60209534806113,-73.99661575900669,Brooklyn
32902,,,
12472,41.84567723975069,-74.07643350290859,Rosendale
74337,36.15688502758621,-95.35961774655173,Mayes County
12841,43.64155242777778,-73.50831823888889,Town of Dresden
82083,41.740191,-105.980751,Rock River
04556,43.97064813894994,-69.63293865531136,Edgecomb
72722,36.33663229621543,-94.45819078296942,Decatur
78953,29.877228403333337,-97.35919910666668,Bastrop County
87566,36.05802081666667,-106.0816807,Rio Arriba County
01542,42.20200875,-71.9063119,Leicester
99161,46.910283,-117.07597225999999,Palouse
90061,33.92109054380952,-118.27361765619047,Willowbrook
25704,38.375573936734696,-82.49755805510203,Wayne County
441463808,,,
01373,42.47425344444444,-72.60874757222223,Deerfield
603041605,,,
034582044,,,
54720,44.804736883529415,-91.43599816078432,Altoona
29334,34.90562790477193,-82.11673048393654,Spartanburg County
35062,33.73711176057971,-87.0387536605797,Sumiton
13468,42.8412817175,-74.8617578365,Town of Springfield
30017,33.887277319913416,-83.97282196796536,Gwinnett County
32322,29.873313547727275,-84.63526874166666,Franklin County
12723,41.771166002989766,-75.02482018725414,Hortonville
32505,30.4519318823389,-87.25574055322195,Brent
787199724,,,
20718,,,
29652,34.9360633,-82.2643002,Greer
12527,41.52007655595238,-73.93572738095239,Town of Fishkill
28080,35.45205747589744,-81.1161864425641,Lincoln County
28698,36.32757051621622,-81.73757276216216,Watauga County
50000,42.393559,-94.606398,Rockwell City
85624,31.543353964172333,-110.74320711485262,Town of Patagonia
95379,37.972139109077915,-120.23676931772695,Tuolumne County
13801,42.50501834657168,-75.78022916384684,Town of McDonough
76043,32.23310577007299,-97.75783903138687,Glen Rose
96039,41.4705598,-123.248748,Siskiyou County
98946,47.072272,-120.69502,Kittitas County
58067,46.0515601,-97.5050169,Rutland
29657,34.78263526659436,-82.69249611626898,Liberty
00968,18.41065050909091,-66.10680057727272,Pueblo Viejo
20043,,,
23148,37.8397724,-77.052451225,King and Queen County
05148,43.245125579255316,-72.81112197553192,Londonderry
20764,38.830633338235295,-76.50909750882353,Anne Arundel County
62794,39.8344949,-89.6425469,Sangamon County
34983,27.31539444024768,-80.35025565866873,Saint Lucie County
58735,47.815157,-101.520956,McLean County
95456,39.2660805625,-123.7859181625,Mendocino County
20023,,,
13068,42.50494014033861,-76.36089478148693,Town of Dryden
42044,36.9490484527559,-88.25851258661417,Marshall County
71613,34.1445079,-91.994826,Jefferson County
337125531,,,
52356,41.46756327843137,-91.8381953862745,Wellman
54971,43.848090336764706,-88.838736995,Ripon
11207,40.67230208846518,-73.89481299822674,Brooklyn
142161905,,,
946063934,,,
67701,39.39184650752688,-101.05446220806452,Colby
11789,40.95704285840075,-72.97220152526447,Sound Beach
02137,42.2532789,-71.1180611,Hyde Park
91976,,,
46408,41.548277348373105,-87.3639898659436,Gary
80214,39.74631473527929,-105.06336416551869,Lakewood
48458,43.113964473712734,-83.69399403333334,Mount Morris
06404,,,
28790,35.207643037569056,-82.45434043038675,Henderson County
10986,41.264332430698744,-73.98672900160366,Town of Stony Point
36584,31.207262,-88.378221,Washington County
25302,38.372015664320784,-81.62829554549918,Charleston
92339,34.086108,-116.920195,San Bernardino County
10548,41.249468847543355,-73.94173365440751,Montrose
23314,36.948625040646476,-76.53431007437007,Isle of Wight County
02863,41.8938076,-71.387625775,Central Falls
98640,46.474250312,-124.053167324,Ocean Park
05651,44.26433232919255,-72.49757113229813,East Montpelier
31601,30.79957241117825,-83.29535066042295,Valdosta
53503,43.15413549124088,-89.96525779562045,Town of Arena
58733,48.205913,-101.57707,Ward County
96839,,,
22968,38.2324782686217,-78.40072331407625,Greene County
14062,42.45975291622419,-79.16477716890856,Town of Hanover
152182527,,,
44314,41.0420176002584,-81.55932843359173,Akron
38469,35.0710192734375,-87.4200555546875,Lawrence County
48360,42.74653111744681,-83.27213365617021,Orion Charter Township
40402,37.315923104545455,-83.98705682727272,Jackson County
904035545,,,
863035540,,,
19149,40.03513771223776,-75.0709876041958,Philadelphia
303083335,,,
89704,39.269375483333334,-119.84097638333333,Washoe County
10550,40.90759765339353,-73.8362524534081,City of Mount Vernon
07022,40.816871280172414,-74.0006118,Fairview
03601,43.219054,-72.2936625,Acworth
03233,43.45479626666667,-71.91201260833334,Wilmot
46391,41.58224223411215,-86.9064780775701,LaPorte County
18336,41.36543225625,-74.71075512307692,Westfall Township
23336,37.929118058287294,-75.37238920635359,Chincoteague
31063,32.29255605840708,-84.011760039823,Montezuma
49958,46.7821245125,-88.736756625,Laird Township
18950,40.42419432,-75.0761892,Plumstead Township
95540,40.592171785616436,-124.14865962534246,Fortuna
22060,38.71123771409396,-77.16410170067114,Fairfax County
32304,30.449152964114464,-84.31417753828306,Tallahassee
26351,38.93899145244565,-80.83305518722827,Glenville
89024,36.81941785,-114.05715745,Mesquite
96087,40.605146,-122.49243,Shasta County
04679,44.276552280740184,-68.32153609524168,Southwest Harbor
30016,33.54939510756014,-83.9421329513173,Newton County
32667,29.490465112800003,-82.2852244448,Alachua County
89311,39.0206985,-114.10864848,White Pine County
46218,39.80829678252495,-86.10029910222626,Indianapolis
20824,,,
29935,32.38619826036036,-80.68993842702702,Port Royal
59057,45.841704,-108.88748,Yellowstone County
54202,45.06878887720588,-87.13097232132353,Town of Baileys Harbor
57071,44.33341086185567,-96.86394147525773,Brookings Township
13361,42.89997243764988,-74.87810458417266,Town of Stark
75134,32.620526078313254,-96.77703061927711,Lancaster
36618,30.730658533576644,-88.17254176520682,Mobile
79721,32.2334975,-101.4712504,Big Spring
21625,38.87636141481481,-76.00649002037038,Talbot County
71802,33.72778182,-93.55754098,Hempstead County
97479,43.39072081696203,-123.31364941417722,Sutherlin
63022,,,
02188,42.207269100000005,-70.95780613906857,Weymouth
60639,41.91974786992126,-87.75515591685038,Chicago
80478,39.97657166666667,-105.81384653333333,Grand County
19601,40.34998841191011,-75.93926791842696,Reading
21161,39.65114652450683,-76.5987403405918,Baltimore County
60301,41.888481391111114,-87.80059907222223,Oak Park
85822,,,
87006,34.525395,-106.794462,Socorro County
94340,,,
21856,38.33541685,-75.79316055666668,Wicomico County
50156,41.88446963351064,-93.81271562712766,Madrid
39114,31.943208672036477,-89.83851369726443,Mendenhall
39338,32.08869647234042,-89.21930340851064,Jasper County
38677,34.3645355616,-89.53747948040001,Lafayette County
22650,38.75889658333333,-78.38769252222222,Page County
85378,33.642003417333335,-112.31626795128204,Maricopa County
49088,42.19161645844156,-85.42951821948051,Pavilion Township
01523,42.45124011111111,-71.68443023888888,Lancaster
94948,,,
40018,,,
96027,41.45717245,-122.894316775,Etna
19151,39.976272207434945,-75.25309585650557,Philadelphia
01222,42.05874,-73.318686,Sheffield
28655,35.72989975449646,-81.70155448763894,Morganton
23302,37.8832891125,-75.53497785,Accomack County
01005,42.41662213076923,-72.1078755,Barre
152171240,,,
46788,41.25159578636912,-84.95108054463209,Allen County
54638,43.79472783229167,-90.368713628125,Kendall
809075404,,,
13740,42.27324076809338,-74.75934720856031,Town of Bovina
010414887,,,
021191543,,,
582019259,,,
58438,47.6489052,-99.6299881,Fessenden
11548,40.81273946450151,-73.62523419154078,Greenvale
585030865,,,
585015469,,,
33980,26.98734692670157,-82.06127740890052,Port Charlotte
585038233,,,
474016774,,,
537163449,,,
662082155,,,
951243331,,,
142163417,,,
95631,39.02614019230769,-120.80038664102564,Placer County
91978,32.73364675637343,-116.95889156050269,San Diego County
45113,39.395398320930234,-83.98912082480621,Vernon Township
84737,37.18172166276202,-113.3360654511714,Hurricane
77277,,,
12776,41.9360985581971,-74.94097217295656,Town of Rockland
016091661,,,
07711,40.22883778309859,-74.00786534366198,Asbury Park
18911,40.36819,-75.248514,Hilltown Township
22026,38.588241523739235,-77.30859671316114,Prince William County
76849,30.482925920959143,-99.77564148561278,Junction
48881,42.91798757881356,-85.21306930932204,Boston Township
92036,33.05023304562031,-116.5595334532356,San Diego County
67101,37.77706337272728,-97.48151547272728,Sedgwick County
95465,38.39949715714286,-122.94009319285715,Sonoma County
69337,42.79687208214286,-103.00746687142858,Dawes County
24120,36.73536420379747,-80.4233661670886,Patrick County
11422,40.66356918091551,-73.73558124778593,Queens
38941,33.497556974545454,-90.32766672727273,Itta Bena
49911,46.4651097037037,-90.0453979962963,Bessemer
76022,32.830772902999996,-97.144290275,Bedford
56387,45.545598777031806,-94.23669645618375,Stearns County
44833,40.727403163251665,-82.79511892917596,Galion
29845,33.840031055555556,-82.2410544,McCormick County
38949,34.184423275,-89.441532025,Lafayette County
191464261,,,
48636,44.63325284054054,-84.23588258378378,Big Creek Township
17740,41.2112709477387,-77.24597895125629,Piatt Township
77841,30.6181469,-96.3449761,College Station
94915,,,
11417,40.67723233958749,-73.84410972697937,Queens
22906,,,
90637,,,
95375,38.19364901609658,-120.01566296619718,Tuolumne County
32614,,,
98822,47.695725167865,-120.25414262817314,Chelan County
52358,41.676222277200004,-91.30007348,Cedar County
13026,42.73906174693282,-76.6749822372931,Town of Ledyard
43543,41.605407108914726,-84.63333341744186,Superior Township
05037,43.46270561825095,-72.48161448403042,West Windsor
97828,45.45182856226415,-117.28395669622641,Wallowa County
15126,40.46452596246056,-80.27411234321767,Findlay Township
05151,43.387684799653975,-72.47989793321798,Weathersfield
32024,30.110981558261443,-82.70580494544065,Columbia County
14619,43.13629840735529,-77.6479595595299,City of Rochester
27021,36.30192039719764,-80.35073923141593,Stokes County
84763,37.1612058,-113.0482696,Rockville
32004,,,
30157,33.89900255173423,-84.82223980309234,Paulding County
70054,,,
20775,,,
97233,45.513407083082754,-122.50271689306932,Centennial
05490,44.51783115,-72.87184185,Underhill
96037,41.55119005,-122.90185005,Siskiyou County
78650,30.286192939999996,-97.2310213723077,Bastrop County
86045,36.12825518125,-111.22910025,Tuba City
32141,28.944590216382046,-80.89298979092955,Edgewater
95967,,,
96932,13.47618335,144.75416765,Hagåtña Municipality
90508,,,
08826,40.7093693957672,-74.9007364941799,Lebanon Township
946111532,,,
19432,40.079326,-75.56181,Charlestown Township
54810,45.45985526395939,-92.41094732081218,Town of Balsam Lake
21651,39.24653693829787,-75.86934036382979,Queen Anne's County
934204407,,,
95378,,,
13114,43.468151781308414,-76.24475816062305,Village of Mexico
222046220,,,
02559,41.69245392727272,-70.61808767272727,Bourne
190835219,,,
905012044,,,
532026724,,,
543135061,,,
45506,39.91050765923567,-83.82958421146496,Springfield
541152635,,,
115421337,,,
200091463,,,
973675201,,,
54756,44.454899524615385,-91.94723398153846,Town of Nelson
601482825,,,
939406758,,,
021384345,,,
028641532,,,
605461686,,,
224072023,,,
537195047,,,
530453507,,,
48141,42.294313136666666,-83.31569189266666,Inkster
117681501,,,
931091060,,,
547589164,,,
200081761,,,
782322126,,,
537051103,,,
109602116,,,
142024336,,,
949204277,,,
461769234,,,
530972302,,,
045725515,,,
119373181,,,
211575728,,,
958191804,,,
972394716,,,
535621197,,,
124335130,,,
137603323,,,
600453138,,,
946182339,,,
207072835,,,
532155031,,,
544673059,,,
54566,45.4333899,-88.68563687912088,Town of Freedom
59917,48.886468545,-115.008951355,Lincoln County
53594,43.181980680487804,-88.97839455707317,Waterloo
535931049,,,
537115288,,,
980345705,,,
168016603,,,
56081,43.982909368032786,-94.63075407377049,St. James
27402,36.06711065,-79.80727260714285,Greensboro
43003,40.403366642592594,-82.95909699259259,Oxford Township
941322011,,,
941231515,,,
941311131,,,
941235008,,,
941151560,,,
100238221,,,
221014748,,,
118036421,,,
545549356,,,
954041251,,,
94914,,,
97053,45.8227747,-122.84593865,Columbia County
950145269,,,
941151061,,,
54476,44.90151807146631,-89.56951703394981,Village of Weston
581036286,,,
58428,46.822534,-99.774026,Kidder County
58563,46.916546419999996,-101.42154626,Morton County
58545,47.2986369,-101.610237,Hazen
585544704,,,
20188,38.7041914,-77.8377341,Fauquier County
12842,43.74892890259939,-74.28094843929664,Town of Indian Lake
03037,43.14161739140625,-71.248522034375,Deerfield
85019,33.5139407285416,-112.14324385828783,Phoenix
60432,41.53118451454545,-88.07009169636363,Joliet
08609,40.2206273513089,-74.7480948895288,Trenton
52655,40.82267473333333,-91.17597789649123,West Burlington
92781,,,
18014,40.75509396044776,-75.40089565261194,Chapman
59230,48.198887477419355,-106.63928699193548,Glasgow
93552,34.56877639101124,-118.01939044322722,Palmdale
34473,29.010569414705884,-82.18439810656109,Marion County
56145,44.058895635,-95.220079805,Cottonwood County
45778,39.33856485,-81.89736056578947,Rome Township
56361,46.08077617833334,-95.33978583333334,Douglas County
03086,42.83376763208556,-71.7552077513369,Wilton
92809,,,
66749,37.92547078764045,-95.40004945393258,Iola
05032,43.79383768945313,-72.65621147695313,Bethel
19399,,,
61824,,,
47448,39.188930217201836,-86.25476241215596,Brown County
30906,33.40008713679155,-82.030763781268,Augusta
10453,40.85226754328247,-73.9120863227019,The Bronx
95380,37.4802988666046,-120.83610463792675,Turlock
54890,,,
74430,35.125256,-95.667849,Crowder
99664,60.14676029583334,-149.43849971458332,Seward
58497,46.773907,-98.547044,Stutsman County
850506829,,,
201905149,,,
44401,41.03691223,-80.96265613,Mahoning County
442244466,,,
08242,39.01793806238532,-74.87969321743118,Middle Township
39325,32.52850105365854,-88.88093701300814,Lauderdale County
62952,37.43054205269461,-89.30779400658683,Union County
07863,40.812008419402986,-74.98527273432835,Oxford Township
04003,43.73353620391791,-69.99526178041044,Harpswell
55954,43.52765248837209,-91.76348109767441,Fillmore County
53520,42.61266546342814,-89.39020719249937,Town of Decatur
97537,42.4329641,-123.16704598333332,Rogue River
19375,39.9446889,-75.74645525,Newlin Township
12165,42.318650720689654,-73.51083538551724,Town of Austerlitz
94581,,,
03780,44.0188113,-71.97117275,Haverhill
14549,42.6988129,-78.02084647999999,Town of Castile
04947,45.04451989337877,-70.26346439483933,Carrabassett Valley
21757,39.594466750877196,-77.26719458421053,Frederick County
27249,36.12749797826087,-79.57890334280937,Guilford County
31217,32.84700775214724,-83.5692976817996,Macon
90060,,,
94942,,,
21005,39.486403184,-76.136559456,Harford County
33952,26.9856044977396,-82.10023072594937,Port Charlotte
25541,38.43655656587301,-82.14435022777778,Milton
27880,35.739763904771785,-78.08130712994468,Wilson County
70634,30.821367904761903,-93.25829936190476,Beauregard Parish
01259,42.0988242,-73.2327901,New Marlborough
33949,,,
15655,40.21129995,-79.184698025,Laurel Mountain
34269,27.065622212195123,-81.98267270487804,DeSoto County
33916,26.638181229803923,-81.8435015745098,Fort Myers
32296,,,
33954,27.02209575984556,-82.10926088610039,Charlotte County
39662,31.401359030555557,-90.27828327222223,Lincoln County
34290,,,
80402,39.82823,-105.379619,Jefferson County
54221,44.07658025,-87.68579685,Manitowoc
99403,46.412625077777776,-117.07123960555556,Asotin County
95245,38.30994443157492,-120.59067160252295,Calaveras County
93271,36.430667670588235,-118.92240166764705,Three Rivers
70762,30.60267418,-91.47696179,Pointe Coupee Parish
20109,38.784066745677826,-77.50622640869251,Prince William County
96101,41.471844554347825,-120.57970390434782,Modoc County
04474,44.72574982630986,-68.78530732456339,Orrington
32949,27.9162168625,-80.54025323958334,Grant-Valkaria
94525,38.05554228333333,-122.2205381,Contra Costa County
93124,,,
07926,40.8030169,-74.57414125,Mendham Township
75936,30.9262229,-94.59862195833334,Chester
30291,33.57687502414572,-84.54629852293138,Union City
89533,,,
54757,45.222781393822395,-91.55866835405406,Town of Dovre
24556,37.35892985835427,-79.39349143731155,Bedford County
78610,30.074932262708717,-97.7653722028757,Travis County
80527,,,
55779,46.89574698427673,-92.42126936163523,Grand Lake Township
63012,38.33371911011904,-90.44481320833334,Imperial Township
14817,42.37484984402017,-76.35945076865994,Town of Caroline
31779,31.101956190181816,-84.15644120763636,Mitchell County
96780,19.968626,-155.218114,Hawaiʻi County
12134,43.24645528711619,-74.1722237051776,Town of Northampton
35652,34.83989321461187,-87.29170803607306,Lauderdale County
358119167,,,
998018211,,,
98850,47.366299552386,-120.13951142460235,Chelan County
96716,23.62648422,-150.21064028,United States
482212231,,,
940853171,,,
14900,,,
37096,35.611620902564106,-87.8374441,Linden
537112748,,,
05255,43.176238842049464,-73.05380265618375,Manchester
46201,39.77515078934397,-86.10805286890091,Rivoli Park
77028,29.823121875862068,-95.28826251471264,Houston
28066,35.2416298,-81.3567111,Kings Mountain
23607,36.98828558863782,-76.41557661964309,Newport News
96931,13.499829,144.798116,Tamuning Municipality
96805,,,
96824,,,
96730,21.554086,-157.853672,Kaaawa
96823,,,
96767,,,
08553,40.403553937864075,-74.64073044854369,Rocky Hill
85147,33.1506036375,-111.733921571875,Pinal County
95658,38.8790733,-121.1351236,Placer County
85924,34.38897330322581,-109.6970292435484,Apache County
85545,33.64155856666667,-110.98276845555556,Gila County
85902,34.331915,-109.818204,Apache County
86334,34.97379178571428,-112.49268964285714,Yavapai County
85501,33.41002393302961,-110.78580647312074,Gila County
54767,44.83343065625,-92.26020973375,Spring Valley
18471,41.52771957777778,-75.70087182222223,Waverly Township
97434,43.718811970588234,-122.85014460025575,Lane County
85372,,,
13612,44.00450832015915,-75.77918310291777,Town of Rutland
97544,42.229723,-123.280848,Josephine County
44846,41.30276255882353,-82.60495117058824,Milan
86335,34.64357458333333,-111.812241375,Yavapai County
83687,43.591545750181815,-116.4948020350909,Canyon County
01034,42.07568637777778,-72.93632186666666,Granville
37082,36.084681439130435,-87.12115958067633,Kingston Springs
97388,44.87509790361445,-124.03454493253011,Lincoln County
15327,39.754680071875,-79.9549068375,Dunkard Township
23442,37.90682806428571,-75.56574276071429,Accomack County
27067,35.8159454,-78.6926473,Raleigh
22642,38.9143134435518,-78.06086390845665,Fauquier County
97024,45.541181593090215,-122.44212244424183,Fairview
32821,28.38812297248677,-81.48377715820106,Orange County
20883,,,
91940,,,
38175,,,
38015,35.54933988541667,-89.81910668333333,Tipton County
37876,35.84470522357847,-83.48073046353298,Sevier County
04937,44.62021537260973,-69.64143523205172,Fairfield
12440,41.813369669237666,-74.1408141193722,Town of Marbletown
12458,41.77559181955307,-74.39465205369335,Town of Wawarsing
12174,42.35815935,-73.7328233,Town of Stuyvesant
12521,42.16648470250607,-73.63593548633791,Town of Taghkanic
12201,42.6477338,-73.7527718,City of Albany
60636,41.77634181465798,-87.66364083371336,Chicago
12449,41.991512929627326,-73.99590156341614,Lake Katrine
13731,42.1520367296063,-74.78477247023622,Town of Andes
12466,41.9068305710084,-73.98015472725089,Port Ewen
12786,41.65945274368206,-74.83611222214674,Smallwood
12487,41.86404770061452,-73.9940841750838,Town of Esopus
12720,41.67706655241379,-74.8864199337931,Town of Bethel
30333,,,
92286,34.162354,-116.392866,Yucca Valley
92252,34.137699290625,-116.301098346875,San Bernardino County
21311,,,
00841,17.6987479,-64.836966,Saint Croix District
39701,33.49948633818182,-88.43929590247934,Lowndes County
04287,44.05513696314655,-69.96979530739942,Bowdoin
56302,45.546683,-94.1885133,St. Cloud
04642,44.3314737034188,-68.80064569059829,Brooksville
13402,42.898043045553145,-75.52195503958785,Town of Madison
08825,40.50937860754717,-75.03917680943395,Kingwood Township
55387,44.836906978140036,-93.7816110423303,Waconia
55320,45.3968762152439,-94.06530320670733,Clearwater Township
29630,34.73666216682578,-82.79030890501193,Pickens County
55074,45.38282478395062,-92.7324320925926,Shafer Township
08323,39.405614661538465,-75.34715825384616,Greenwich Township
55397,44.7954273015873,-93.9261448952381,Young America Township
98650,45.92537308,-121.51877557,Klickitat County
55323,45.03945066666667,-93.68575926666666,Independence
92212,,,
95551,40.651250775,-124.2243020125,Humboldt County
61951,39.59184684563107,-88.59886759417475,Sullivan
28236,,,
03839,43.273570800980394,-70.98750328137255,Rochester
63637,37.73945407368421,-90.49858442105264,Saint Francois County
50132,42.4054628,-93.67145632666667,Hamilton County
79001,35.270923575,-102.68005835,Oldham County
34945,27.424409106878304,-80.43125957460317,Saint Lucie County
19506,40.44393212468355,-76.2471086113924,Tulpehocken Township
62692,39.585064588421055,-89.95654647157895,Morgan County
49908,46.779018317391305,-88.49431069130435,Baraga
82054,41.04553805,-104.3634668,Laramie County
91395,,,
31620,31.136513168421054,-83.42306193815789,Adel
59046,46.26443958,-109.00356282999999,Golden Valley County
24090,37.50039222962963,-79.87540246296297,Fincastle
78957,30.00978336865672,-97.16298321044776,Smithville
46926,40.86691521428571,-86.04242148714286,Miami County
24088,36.908890609900986,-80.05010948712871,Franklin County
79347,34.228841044444444,-102.73054071111112,Muleshoe
15759,40.76971945384616,-79.03440885096154,East Mahoning Township
49640,44.700561953846154,-86.04548619743589,Platte Township
04002,43.48704245068819,-70.66631150775542,Lyman
37058,36.48476606017316,-87.85924210909091,Dover
45068,39.53786551513761,-84.06781631926606,Warren County
57370,43.95474632222222,-99.22106448333334,Dewey Township
84761,37.84302072631579,-112.84142020526316,Parowan
77358,30.54247029705882,-95.44318029411764,Walker County
84090,40.5813664,-111.8604028,Sandy
99180,48.097718,-117.2785963,Pend Oreille County
76135,32.82719631178571,-97.44287233035715,Fort Worth
13031,43.04145309278634,-76.28603032830397,Town of Camillus
95613,38.79987088,-120.89117974000001,El Dorado County
76367,33.95618469516129,-98.68143828986175,Iowa Park
68123,41.123455991468255,-95.95590368968254,Sarpy County
95458,39.09272215714286,-122.79463062857144,Lake County
81418,38.8544018,-107.955433,Delta County
02779,41.83358188181818,-71.06605645454545,Berkley
77535,30.03064228504155,-94.88533326260388,Dayton
65588,37.0053953375,-91.32864916875,Winona
80804,39.28306283571429,-103.2767884,Arriba
77615,30.3489832,-94.0752301,Jasper County
05751,43.6541323337386,-72.8013321118541,Killington
57276,44.399480455932206,-96.58897582542373,Sherman Township
99635,60.7286617,-151.3046826,Kenai Peninsula
92885,33.88889615,-117.81098865,Yorba Linda
39762,33.45568167790698,-88.79194025,Oktibbeha County
75603,32.43693919102564,-94.7380652474359,Gregg County
35051,33.19401512418773,-86.61081365523467,Columbiana
61046,42.12728480963855,-89.84423377991969,Carroll County
90263,34.0385744,-118.7070564,Unincorporated Santa Monica Mountains
37352,35.275508775619834,-86.34586518677686,Lynchburg
72442,35.8540823945122,-90.17754818170732,Mississippi County
91708,33.958078032352944,-117.64800536764704,Chino
95957,39.1426076,-121.9162144,Sutter County
22454,37.85564267058824,-76.80186545294119,Essex County
18058,40.91083231497326,-75.49834626363636,Polk Township
30133,33.6920693,-84.77981175,Douglas County
89430,38.796275,-119.311412,Lyon County
45896,40.598829355737706,-83.96166483278688,Waynesfield
60633,41.65577263145486,-87.54651160301897,Chicago
62525,39.8318226,-88.9581475,Decatur
80815,39.28938477941176,-103.06407688529411,Flagler
49284,42.374672325,-84.70037100535714,Springport
81520,39.08064157869264,-108.44872738667505,Mesa County
45345,39.73956881886792,-84.39664494716982,New Lebanon
84017,37.650554752,-111.71803553199999,Garfield County
92333,34.266358571428576,-116.9285606,San Bernardino County
57279,45.40834191578947,-96.85776609473683,Wilmot
54166,44.78885290122378,-88.5928115402098,Town of Wescott
34436,28.737995682305627,-82.28951687613942,Citrus County
25330,,,
57018,43.76977833728814,-96.93336175423728,Taopi Township
76567,30.652370649647885,-97.0107309221831,Rockdale
32244,30.205810881291306,-81.76157038525673,Jacksonville
62225,38.53940359468085,-89.86460609042553,Saint Clair County
25918,37.70711783714285,-81.06366387238094,Raleigh County
40047,38.04747242973978,-85.55491072565056,Mount Washington
75438,33.58225370930232,-96.07734472325582,Dodd City
29123,33.775439689261745,-81.26194234161075,Pelion
43138,39.53906650698404,-82.40970862100446,Logan
37616,36.21329727142857,-82.74248164795918,Greeneville
40108,37.97417396990741,-86.1384858037037,Meade County
47041,39.239053090714286,-85.07177331785715,Jackson Township
18080,40.7386120401793,-75.61694782624286,Washington Township
72687,36.22675455182482,-92.68814658321169,Yellville
72455,36.28308168489066,-90.99842332564613,Pocahontas
76630,31.339543795238097,-97.23739117380953,McLennan County
79713,32.52365168461539,-101.72096500769231,Ackerly
62905,37.57578277323943,-89.32943177746478,Alto Pass
61028,42.30790978924051,-90.18627932025316,Woodbine Township
25413,39.32750053606557,-78.03453479754099,Berkeley County
35570,34.15674799101124,-87.99778267940076,Hamilton
25312,38.39679283432836,-81.66656060634328,Charleston
95435,39.003093,-122.875507,Lake County
35759,34.853705221153845,-86.56979008974359,Madison County
13355,42.818349223627685,-75.43985892911694,Town of Hamilton
83316,42.61410704615384,-114.76825759230769,Twin Falls County
70756,30.55450014285714,-91.62657618571428,Pointe Coupee Parish
79083,35.8052986125,-101.48708555,Hutchinson County
33956,26.53405981439394,-82.09189253181819,Saint James City
73860,36.583414495999996,-98.87875657400001,Waynoka
48182,41.76283651491228,-83.58071327046784,Temperance
80018,39.69612107206021,-104.70028294985889,Aurora
46784,41.49136297809524,-85.38244710095239,Rome City
55150,44.88662343376623,-93.16151968441558,Mendota
85929,34.17541460282232,-109.99234483277743,Pinetop-Lakeside
56011,44.62120239675325,-93.76970009188311,Belle Plaine
67127,37.20116781024259,-99.4842506897574,Protection
76861,31.566640773333337,-100.23798709333333,Tom Green County
95947,40.1407904,-120.9367689,Plumas County
40340,,,
28909,35.00115950375,-83.90705921875,Clay County
79108,35.28486059463087,-101.81942654093959,Amarillo
55358,45.24977800551181,-94.00096204448819,Maple Lake Township
46816,41.016943758627704,-85.09358743741824,Fort Wayne
33233,26.167972,-80.315391,Sunrise
45053,39.344866116666665,-84.78131835714285,Morgan Township
21640,39.05816901,-75.83822379,Caroline County
72103,34.60660017210402,-92.38308572789599,Saline County
66753,37.374942419999996,-95.00384912909091,Crawford County
31702,,,
45302,40.38435696477273,-84.2044517375,Shelby County
92877,33.8533024,-117.5384488,Corona
62924,37.816770747651006,-89.20980169865771,Jackson County
02714,41.6146693,-70.9383177,Dartmouth
02564,41.262610333333335,-69.99578673333333,Nantucket
06601,41.162033,-73.195328,Bridgeport
00002,,,
29353,34.82543007692308,-81.67250061442307,Union County
47334,40.11785093571429,-85.5419793,Delaware County
17059,40.572541788461535,-77.38199808846154,Fermanagh Township
85937,34.505335917954376,-110.09072641353936,Snowflake
85119,33.395055488348596,-111.51685149467943,Apache Junction
50861,40.911287460000004,-94.2712155,Union County
23707,36.83731325193242,-76.34460180542767,Portsmouth
18101,40.60425667222222,-75.468228415,Allentown
38351,35.655200365151515,-88.4026200748106,Lexington
32431,30.793829210144924,-85.39323556050725,Jackson County
21541,39.55635243877551,-79.35678375442177,Garrett County
39457,30.81899476666667,-89.56917813333334,Pearl River County
49404,43.0596369425,-85.9435259455,Coopersville
62863,38.408031041056915,-87.80561978861789,Wabash County
77412,29.5645516,-96.48599425,Colorado County
74960,35.813904435353535,-94.63083203232323,Stilwell
93450,36.006241,-120.89381,Monterey County
13303,43.34976324991708,-75.45831759519072,Town of Western
90633,,,
47302,40.17076023529971,-85.37999888829685,Muncie
39553,30.399586980504584,-88.6442671766055,Gautier
12170,42.9654192957942,-73.66331332474479,Town of Stillwater
55730,43.583598,-103.6914089,Custer County
78516,26.187675254850745,-98.11763063246269,Alamo
14525,42.879024113155836,-78.01529247635082,Pavilion
92138,,,
20783,38.990462425217274,-76.9726403091461,Langley Park
30646,34.04516401834862,-83.30975536605504,Madison County
02364,41.98928077567568,-70.7318856,Kingston
44065,41.46624694186047,-81.23763736627906,Newbury Township
16415,42.03395813909853,-80.21700027054507,Fairview Township
91385,,,
76064,32.30741809932126,-97.0213958331448,Ellis County
13668,44.74770844376471,-74.99348255552941,Village of Norwood
333271615,,,
33055,25.944589205972626,-80.27747517810037,Miami Gardens
33147,25.850953353045146,-80.2363995604983,Miami-Dade County
33054,25.911423236526048,-80.24599186379668,Opa-locka
333043649,,,
214011251,,,
329639508,,,
335118139,,,
678460399,,,
379229327,,,
482301924,,,
706054290,,,
775845529,,,
920712016,,,
069031104,,,
774295113,,,
481061958,,,
760633462,,,
926492066,,,
173728726,,,
109505226,,,
221805808,,,
904051917,,,
631053839,,,
940107428,,,
450368615,,,
750970070,,,
170252141,,,
935142014,,,
020265635,,,
038333138,,,
454404333,,,
208141432,,,
780067883,,,
790222712,,,
949012317,,,
769023724,,,
337612836,,,
383206591,,,
890142069,,,
797015721,,,
940622333,,,
801230808,,,
396667554,,,
925034852,,,
177027413,,,
890742959,,,
381195505,,,
329639509,,,
852531974,,,
852261307,,,
430560057,,,
483232049,,,
530666702,,,
232297072,,,
168015409,,,
787303323,,,
780286420,,,
638018338,,,
920099105,,,
914363723,,,
440951545,,,
341198420,,,
405091928,,,
496866014,,,
786419679,,,
993528410,,,
174035134,,,
040437433,,,
339572218,,,
782092785,,,
940622443,,,
440561221,,,
330094617,,,
773803464,,,
337824205,,,
837144022,,,
986715196,,,
939406646,,,
959489536,,,
211463134,,,
313280659,,,
542209769,,,
931102250,,,
940662818,,,
664229719,,,
983689646,,,
949037000,,,
327894414,,,
070812106,,,
782587703,,,
928051808,,,
600251723,,,
160012105,,,
190341617,,,
112232640,,,
321378335,,,
278935002,,,
492699793,,,
038622216,,,
400599300,,,
454346627,,,
950705661,,,
606107115,,,
970139538,,,
919104474,,,
952193514,,,
293601752,,,
852159639,,,
196069482,,,
813014203,,,
940621202,,,
953568868,,,
017734118,,,
928332219,,,
018215731,,,
970066340,,,
179612219,,,
037683900,,,
926571022,,,
208156267,,,
530299339,,,
797825031,,,
339082861,,,
922112706,,,
949011333,,,
322666121,,,
318042120,,,
537172172,,,
920675005,,,
341085506,,,
370754507,,,
605154766,,,
956708102,,,
705205730,,,
908132735,,,
920611638,,,
779016549,,,
875068500,,,
146102118,,,
727124096,,,
276125329,,,
757715205,,,
453659400,,,
605549247,,,
530589476,,,
499131767,,,
770794205,,,
692128000,,,
657457393,,,
283041901,,,
787342640,,,
331803788,,,
730349721,,,
105801933,,,
606111165,,,
495088748,,,
484391812,,,
956125021,,,
922206507,,,
631313411,,,
434029581,,,
333172640,,,
787464684,,,
481689534,,,
342092036,,,
797027727,,,
967012826,,,
802307045,,,
381032424,,,
483012103,,,
553912915,,,
950326501,,,
786761508,,,
630601263,,,
490489373,,,
112356031,,,
801111636,,,
640632924,,,
029112906,,,
378765400,,,
605212974,,,
587639513,,,
068012719,,,
931081670,,,
616142149,,,
864066201,,,
540160448,,,
931081222,,,
601889225,,,
894030112,,,
330647928,,,
483231670,,,
762410676,,,
716540170,,,
301652664,,,
711015503,,,
875016429,,,
551193953,,,
544946332,,,
180363203,,,
170702120,,,
070022927,,,
730124309,,,
937116930,,,
600898806,,,
551101504,,,
146183626,,,
440221328,,,
483045073,,,
641521130,,,
380283724,,,
454593573,,,
686364486,,,
598403318,,,
392165038,,,
015881017,,,
300680003,,,
838647504,,,
797392609,,,
604627439,,,
347475800,,,
940892552,,,
323092753,,,
100366518,,,
855416152,,,
370276548,,,
778401856,,,
490517725,,,
770434304,,,
814019144,,,
168289008,,,
432214949,,,
970451325,,,
220331109,,,
672010247,,,
341341960,,,
926252839,,,
920641619,,,
463192548,,,
341082785,,,
920146008,,,
359768045,,,
920751557,,,
605554028,,,
928874011,,,
949391938,,,
221531355,,,
183010120,,,
014642121,,,
960078494,,,
972015076,,,
700054419,,,
730134312,,,
931059756,,,
945774063,,,
935504140,,,
211312121,,,
378030486,,,
184031993,,,
674106629,,,
443202411,,,
950323568,,,
950602315,,,
750772714,,,
981774120,,,
815022991,,,
782551149,,,
341101033,,,
979100415,,,
613543302,,,
731181035,,,
214013732,,,
705520888,,,
857391694,,,
700025903,,,
891099034,,,
208156616,,,
379195911,,,
115303011,,,
911032729,,,
980724001,,,
857498742,,,
442818028,,,
841032845,,,
388042017,,,
902102913,,,
605275298,,,
366952737,,,
797625103,,,
467504406,,,
453569740,,,
