zip_code,latitude,longitude,cidade
93728,36.75812251818182,-119.804422475,Fresno County
94531,37.9665026037037,-121.7636963,Antioch
21843,38.3614852,-75.0711724,Ocean City
22433,38.34654744444444,-77.87291342222223,Orange County
29349,35.06269379367041,-82.06664108803933,Spartanburg County
64029,39.01095218384615,-94.21179368346154,Grain Valley
95015,37.3519677,-121.9600502,Santa Clara
56468,46.49906955143678,-94.30684163706896,Nisswa
79370,33.47493899402985,-100.87931376567164,Dickens County
35816,34.73869168178694,-86.62674267113402,Huntsville
79014,35.684797623076925,-101.18835835384616,Hutchinson County
20606,38.25217681428571,-76.73981436428572,Saint Mary's County
72007,34.990564400591715,-91.97268685266272,Ward
36352,31.26174854390244,-85.60811000365854,Houston County
15771,40.839755395,-78.9996306975,North Mahoning Township
78643,30.713414880505415,-98.63095760722022,Llano County
79364,33.45246138214286,-101.66241326428572,Slaton
78412,27.70613839437148,-97.35212396960601,Corpus Christi
76240,33.626676476885244,-97.11801106327869,Gainesville
94534,38.2223084164859,-122.12446845574837,Fairfield
89820,40.62095999411765,-116.94000543333333,Lander County
38558,36.01214212036083,-84.88546279690722,Fairfield Glade
59215,47.41814838918919,-105.59177722432432,Circle
19606,40.32401721019022,-75.86515755584239,St. Lawrence
60924,40.56540384025974,-87.87945835194805,Iroquois County
94928,38.34418552297297,-122.69507187364864,Rohnert Park
11076,,,
08827,40.67420299741379,-74.96954317844828,Bethlehem Township
45885,40.544306319761496,-84.3982898746167,Saint Marys
62806,38.37807573333333,-88.05824735714286,Albion
95350,37.68020537410714,-121.0188189626116,Modesto
81323,37.48925191428572,-108.49291529714286,Montezuma County
05059,43.649726985654006,-72.42130953333334,Hartford
64763,38.137768458974364,-93.71108047179487,St. Clair County
55944,44.01995492556054,-92.73984425829596,Dodge County
54703,44.823469081855905,-91.53081672436817,Eau Claire
35126,33.715520000970876,-86.6490206483495,Jefferson County
03750,43.682978660273974,-72.20273681095891,Hanover
92307,34.511493537313434,-117.25100440298507,Apple Valley
79201,34.431297584615386,-100.22097173076924,Childress
76872,31.205739,-99.1714959,McCulloch County
01519,42.20062034615384,-71.68505016923078,Grafton
87301,35.52947521292517,-108.75359292653063,Gallup
48138,42.135782985263155,-83.15575255403509,Grosse Ile Township
74070,36.36782928694581,-95.9963874820197,Skiatook
91979,,,
67277,,,
22923,38.19819560658683,-78.32399626347306,Orange County
23183,37.3329504,-76.495129975,Gloucester County
37885,35.55910463212121,-84.22126742848485,Monroe County
45162,39.2441763446281,-84.15126742809917,Goshen Township
29164,33.652072688372094,-81.4001756988372,Aiken County
77035,29.656503985333334,-95.47508761755556,Houston
95602,38.9832590641791,-121.0871048761194,Placer County
63563,40.3138558,-92.0879748,Rutledge
88337,32.977681483333335,-105.95156463333333,La Luz
89183,36.00604893797468,-115.14606400632911,Paradise
90742,33.718815784357545,-118.07185958743017,Huntington Beach
73042,35.187708719999996,-98.25942538,Gracemont
77964,29.432977152061856,-96.92215060257732,Lavaca County
29153,33.94487592084942,-80.32517718725869,Sumter County
68843,40.8961929,-97.887658,Hamilton County
29606,,,
40026,38.409546758653846,-85.57318450096155,Oldham County
35016,34.32866028852459,-86.49567021311475,Arab
82055,41.29919915,-106.14454785,Centennial
47992,40.328146114285715,-87.04982564285714,Tippecanoe County
73533,34.512421361896834,-97.96394813094842,Duncan
29070,33.925811344578314,-81.46757834317269,Lexington County
98244,48.86646542631579,-122.10497266842106,Whatcom County
46194,,,
91406,34.20753971111111,-118.48952456296296,Lake Balboa Neighborhood Council District
95255,38.403505564218456,-120.5175415952919,Calaveras County
79764,31.876892034703197,-102.44317300799088,West Odessa
76856,30.731456609174312,-99.21738558440367,Mason County
94503,38.19149493211382,-122.25916243658536,American Canyon
61755,40.54003741297297,-89.34067999891892,Tazewell County
54411,45.037355634430895,-90.03308338256097,Town of Halsey
64086,38.92866570432331,-94.33370766466166,Lee's Summit
60154,41.85193661322314,-87.88687216652893,Westchester
60706,41.96551618921739,-87.81998528317392,Norridge
76052,32.96111796617647,-97.38382105588236,Fort Worth
24938,37.9790139,-80.3917574,Greenbrier County
29129,33.779383923255814,-81.66051203488372,Aiken County
63037,38.40290145,-91.3213806875,Franklin County
17754,41.27176305371179,-76.91886067663755,Fairfield Township
92250,32.788021289999996,-115.37532936,Imperial County
22724,38.62720268673469,-77.91804512857142,Culpeper County
79379,33.602190341379305,-102.61507279482758,Whiteface
35754,34.51970921073171,-86.60730289365853,Morgan County
84014,40.91304759300699,-111.87827473951049,Centerville
78160,29.23671378194444,-97.95609983472222,Stockdale
84655,39.97775211142857,-111.78308533142858,Santaquin
80549,40.708293916279075,-105.00208217906977,Wellington
18509,41.426691673309605,-75.64918035088968,Scranton
20704,,,
49913,47.23580132912622,-88.45270900048543,Calumet Township
23038,37.80704683467862,-78.09417498804186,Goochland County
97347,45.0639664,-123.589145675,Polk County
29661,35.05239409349789,-82.50846366833233,Greenville County
19040,40.181591069905956,-75.10825114608151,Hatboro
05477,44.3957607662,-72.9619586178,Richmond
77402,29.7070187,-95.4741247,Bellaire
97410,42.79479648035714,-123.26337419285714,Douglas County
10118,40.748421490909095,-73.98558874545455,Manhattan
55613,47.56949932916667,-90.85183271944445,Tofte Township
91913,32.631437339166936,-116.9873741742558,Chula Vista
55308,45.40994513081967,-93.84454779540984,Becker Township
45377,39.88642971946472,-84.20033400072992,Vandalia
55398,45.45647976082251,-93.57901496406926,Livonia Township
97296,,,
12791,41.80439551263736,-74.88567066318681,Town of Callicoon
98908,46.59923144109589,-120.59679171232877,Yakima
13045,42.59372982170356,-76.18970085463678,District 2
02048,42.0156404828125,-71.2255280546875,Mansfield
86302,34.5541989,-112.566553,Yavapai County
29878,,,
04848,44.312525237391306,-68.90529535043478,Islesboro
18954,40.21703542788462,-75.00892420192307,Northampton Township
96073,40.58436622839161,-122.2392840572028,Shasta County
67142,37.4542353755102,-98.14869735714285,Kingman County
98321,47.16371201086956,-122.11282278695653,Pierce County
32668,29.26180105927835,-82.49815817371133,Levy County
65265,39.17308902705882,-91.88767474470588,Mexico
44064,41.603279764285716,-81.0622402,Montville Township
37617,36.5285026204499,-82.35234199672801,Blountville
12589,41.61562644008322,-74.13358508723995,Town of Shawangunk
37820,36.0819210629956,-83.56704916035243,New Market
11379,40.719002121626744,-73.87953954796657,Queens County
78358,28.0813025375,-97.0405467125,Aransas County
79059,35.69071070714286,-100.6373693,Miami
61853,40.19856224514364,-88.4010737742818,Mahomet
83638,44.912706175735295,-116.088026025,McCall
73106,35.487943470588235,-97.53075152163187,Oklahoma City
46901,40.4953382104712,-86.14208676963351,Kokomo
81419,38.811393466666665,-107.74626508888889,Delta County
05465,44.502731504680845,-72.96830956085107,Jericho
54313,44.56114052549372,-88.10088095718133,Howard
15347,40.21794396666667,-80.22189566666667,Chartiers Township
56374,45.576646980654765,-94.31542113125,Stearns County
31150,,,
02568,41.4473263962963,-70.60376092592593,Tisbury
89141,36.00673503243243,-115.26625599189188,Clark County
04941,44.49832013197556,-69.32733941425663,Freedom
54986,44.117715205416665,-88.71266337125,Winneconne
03593,44.37376438333333,-71.2863027,Randolph
29653,34.29822026289593,-82.22515921538461,Greenwood County
97801,45.66608879217391,-118.78279289478262,Pendleton
78404,27.7680158254717,-97.3994310264151,Corpus Christi
24184,37.07748776785714,-79.7630155654762,Franklin County
56310,45.62159974090909,-94.45260975656565,Avon
46234,39.797244086789554,-86.31926120991636,Indianapolis
68948,40.309379,-100.011064,Furnas County
73132,35.54553192027027,-97.61946029268017,Warr Acres
52132,43.197295751648355,-91.92016392087912,Winneshiek County
35630,34.818588190290576,-87.66253702558468,Edgemont
73080,35.01181200088496,-97.39752533761062,McClain County
56528,46.54360963611111,-95.78159671018518,Otter Tail County
68503,40.82091014766147,-96.67906273073497,Lincoln
46721,41.41539869147287,-84.88053123100775,DeKalb County
77565,29.53995346956522,-95.02937991956522,Galveston County
55427,44.99680355589459,-93.37398714854369,Golden Valley
55013,45.35893860095238,-92.89322117714286,Chisago Lake Township
56211,45.545349,-96.703851,Big Stone County
19120,40.02893546709511,-75.12145545604113,Philadelphia
58368,48.35970311111111,-99.99230537407408,Rugby
47996,,,
46072,40.281665447138046,-86.05178020841751,Tipton
68924,40.505205239999995,-99.11693524,Kearney County
53219,42.99607033348635,-87.9937860918026,Milwaukee
55051,45.88627803955431,-93.29472569610029,Mora
49072,42.00438628467742,-85.45588278951612,Mendon Township
64019,38.781300577173916,-93.8643194195652,Johnson County
28739,35.292300458397364,-82.50763532063667,Henderson County
51012,42.75015046666667,-95.54475559722222,Cherokee
58356,47.6804695,-99.1382646,New Rockford
27214,36.193920593203885,-79.71623500064725,Greensboro
29211,,,
29021,,,
54460,44.938295145714285,-90.54799903619048,Town of Green Grove
22652,38.80307996727273,-78.46079092363637,Shenandoah County
46110,39.56046837894737,-85.91754364736842,Shelby County
33150,25.851033294754966,-80.20617438671523,Miami-Dade County
60827,41.659062388048206,-87.63973039414128,Chicago
02543,41.527084001724134,-70.66601541724138,Falmouth
64759,37.50277453379791,-94.26900875609755,Lamar
65459,37.97209845440415,-92.10048361968911,Pulaski County
03227,43.770822624324325,-71.42376693648649,Moultonborough
30314,33.757563393451306,-84.43071880196612,Atlanta
91762,34.06069844917788,-117.66789707832586,Ontario
97641,43.23773170243902,-120.68791092439024,Lake County
48001,42.62521759223301,-82.55595016407767,Clay Township
05767,43.8503955902439,-72.81194813536585,Rochester
61526,40.916070570731705,-89.61590772195122,Peoria County
60675,,,
62677,39.8567142225,-89.8515681975,Sangamon County
61744,40.73145599365079,-88.88978347142857,McLean County
61651,,,
27712,36.090070366129616,-78.92334759312331,Durham
08401,39.36604696398838,-74.44819433465635,Atlantic City
07310,40.730007569047615,-74.03960464047618,Jersey City
11718,40.72031851430894,-73.26495832577235,Bay Shore
98601,45.929644964346686,-122.44753025909391,Clark County
33030,25.478773805856733,-80.48830132030946,Homestead
78763,,,
76121,32.61512,-97.540457,Tarrant County
12946,44.278239184311786,-73.98431182839171,Village of Lake Placid
62418,38.9919760902439,-88.95660281707316,Brownstown
36564,30.4706425,-87.9183048,Baldwin County
70805,30.489225922042138,-91.14763307649919,Baton Rouge
91413,,,
60403,41.565776295,-88.12322625499999,Crest Hill
37224,,,
85366,32.968114,-114.462299,Yuma County
92704,33.724061574699036,-117.90584398173948,Santa Ana
18070,40.43007557647059,-75.5417683,Upper Hanover Township
40013,37.92393519090909,-85.50526783295454,Nelson County
61072,42.449426457092194,-89.0781024789007,Rockton
49464,42.81669406959707,-86.01143751135531,Zeeland
77069,29.98433040030769,-95.52611316123077,Harris County
74465,35.906109,-94.955237,Tahlequah ᏓᎵᏆ
23847,36.68699306898148,-77.55444854583334,Emporia
30477,32.871159216,-82.40277740399999,Wadley
31539,31.852115364,-82.59196025389474,Jeff Davis County
35442,33.128293096103896,-88.16034555974026,Aliceville
28761,35.68457796519824,-81.90641877048458,McDowell County
39669,31.13301963712575,-91.34662545269461,Wilkinson County
63960,36.933133679268295,-90.14476287195123,Stoddard County
63437,39.743406506,-92.26127229400001,Clarence
19518,40.26967389198218,-75.73705905478842,Amity Gardens
87015,35.055947364375,-106.186460398125,Edgewood
95975,39.225746,-121.154119,Nevada County
92555,33.923466124528304,-117.18650012264152,Moreno Valley
91767,34.08019008995696,-117.73853831506457,Pomona
92087,,,
91935,32.72062408164735,-116.83755126266834,San Diego County
92105,32.74001478526139,-117.09446468665483,San Diego
11565,40.6748895893123,-73.67244852286395,Village of Malverne
11793,40.685259434006824,-73.50997017168798,Wantagh
11553,40.70276807614621,-73.59221500789349,Uniondale
11550,40.70435723195652,-73.61893260423562,Village of Hempstead
91715,34.0164366,-117.9701438,City of Industry
92371,34.39106384642857,-117.5281225,Phelan
08533,40.07679030088496,-74.4942023522124,Plumsted Township
08610,40.19933462526427,-74.70601194312897,Hamilton Township
34946,27.481665436125652,-80.35025171099477,Saint Lucie County
14806,42.157406792840284,-77.78971421321793,Town of Andover
14902,,,
39601,31.570925619974393,-90.4543800653009,Brookhaven
39355,32.05082268684211,-88.6881656243421,Clarke County
39603,31.5802901,-90.4397991,Brookhaven
39153,32.01687225,-89.51951215,Raleigh
39168,31.76637765714286,-89.45158121428572,Covington County
55376,45.21034809834711,-93.6593954698347,St. Michael
55373,45.083472175438594,-93.71854658157895,Greenfield
55357,45.07066283970588,-93.65270961470588,Greenfield
89137,,,
89009,,,
89178,36.01652867916667,-115.27688852916667,Clark County
89504,40.574513,-119.341524,Washoe County
89301,39.258606221487604,-114.87854026033058,Ely
89177,,,
89160,,,
39150,31.954743575490195,-90.98329885882353,Port Gibson
89505,39.52686257,-119.81148544000001,Reno
98392,47.73579388,-122.55287417999999,Port Madison Indian Reservation
55341,45.16076128571429,-93.66464750714286,Hanover
95938,39.645592,-121.787121,Durham
95966,39.50709576923077,-121.52360231538462,Butte County
95974,39.494456,-121.749673,Butte County
96094,41.41503356862745,-122.38703625686274,Weed
95468,38.9150058125,-123.70240492916668,Point Arena
96080,40.171836657758625,-122.231374875,Red Bluff
96134,41.93610474,-121.46773295999999,Siskiyou County
96062,40.54940606666667,-122.17742483333332,Millville
96055,40.0249288,-122.09649955,Los Molinos
92395,34.508075401999996,-117.30742501700001,Victorville
96056,41.05000273333333,-121.39912183333333,Shasta County
95920,39.46309,-121.9904132,Glenn County
95934,40.0879543,-120.912744,Plumas County
95917,39.41380366666667,-121.71039283333333,Biggs
95992,,,
95927,,,
95469,39.4043796,-123.1211996,Mendocino County
96032,41.60345261333333,-122.84554169333335,Fort Jones
92722,,,
95765,38.819553359016396,-121.28938822827868,Rocklin
95958,39.5513798,-121.7813971,Durham
98443,47.2146307,-122.390116,Tacoma
98333,47.25923445,-122.64383865,Fox Island
98587,47.337696,-124.282682,Taholah
19115,40.09557788615024,-75.0409577169014,Philadelphia
19129,40.00951480229885,-75.18123428505747,Philadelphia
95267,38.817005,-122.206905,Yolo County
93702,36.7371605,-119.75577937777777,Fresno County
93747,,,
95366,37.745935689285716,-121.13371691428571,Ripon
93306,35.39269849818182,-118.93223864000001,Kern County
07832,40.93518412649573,-75.06132736324786,Knowlton Township
08330,39.46148056733945,-74.71979837137614,Hamilton Township
10174,40.75167608,-73.97549006,Manhattan
08201,39.44163207375416,-74.50434232325581,Absecon
08036,39.978764494366196,-74.83429615492958,Hainesport Township
08030,39.89027094855072,-75.11672668985507,Gloucester City
08110,39.964178123417724,-75.0584587227848,Pennsauken Township
95236,38.0372351,-121.1206234,San Joaquin County
95241,38.133057,-121.2920123,Lodi
95205,37.96680846585366,-121.27353026178861,Stockton
95207,37.938657211805555,-121.27908704513888,Stockton
94513,37.93718008644068,-121.71031872372882,Brentwood
49321,43.05874388210863,-85.66763328242811,Plainfield Charter Township
95210,38.00930966012658,-121.28899273829114,Stockton
90202,44.0276302875,-122.1224707875,Lane County
95314,38.3358429,-119.796378,Tuolumne County
95376,37.73671761942446,-121.43232647553957,Tracy
92282,33.96454775,-116.5891249,Desert Hot Springs
93615,36.52308478333333,-119.28771141666668,Tulare County
95686,38.23256203333333,-121.4269959,San Joaquin County
95230,38.02899764615384,-120.79102938846154,Calaveras County
94562,38.431227375,-122.402012825,Napa County
95258,38.15818113333333,-121.30057713333332,San Joaquin County
92833,33.87571510382743,-117.96005165539057,Fullerton
95829,38.46571372608695,-121.36426635217393,Sacramento County
95319,37.639668,-120.903917,Empire
93690,,,
95382,37.52846692025532,-120.84895573259575,Turlock
90701,33.32787004791319,-119.80739265642738,United States
92570,33.76138324067495,-117.26495299431618,Riverside County
93215,35.764994789999996,-119.24277038666665,Delano
93639,,,
91702,34.12713849804326,-117.90623429866119,Azusa
93458,34.975419656097564,-120.4495296609756,Santa Maria
98424,47.24146107222222,-122.36385220370371,Fife
92357,34.0507252,-117.24981461111112,Loma Linda
49302,42.82229027241379,-85.42722105714286,Bowne Township
92802,33.80781073515533,-117.9241002697208,Anaheim
94505,37.88549245,-121.60987945,Contra Costa County
93033,34.17091704736842,-119.16743587894737,Oxnard
91730,34.10359238136646,-117.5921676715173,Cucamonga
95377,37.72256658225806,-121.46338395806451,Tracy
95220,38.19124863636364,-121.25781113636363,San Joaquin County
93384,,,
95203,37.96727533666667,-121.33535753333332,San Joaquin County
95336,37.80706192718447,-121.21379625048544,San Joaquin County
93403,35.32911214202899,-120.7399627536232,San Luis Obispo County
92503,33.87605578415651,-117.43875293406029,Riverside County
95253,38.139102,-121.205696,San Joaquin County
91380,,,
95313,37.4256831,-121.045748,Stanislaus County
95316,37.51772029,-120.73891095,Stanislaus County
91766,34.0408247715164,-117.7521544307377,Pomona
90255,33.97892102268371,-118.21913287731628,Huntington Park
91237,,,
95334,37.380524753173454,-120.72255005129213,Livingston
95843,38.71250946202532,-121.3736931379747,Sacramento County
95019,36.93644414166667,-121.77378215,Watsonville
95269,,,
95121,37.306017786452365,-121.81087773270741,San Jose
92553,33.934907523901096,-117.24949265714285,Moreno Valley
95329,37.69591647503737,-120.35123504857998,Tuolumne County
95640,38.350831627272726,-120.93735455454545,Ione
91204,34.13749168507463,-118.2553696074627,Glendale
11212,40.66202721366907,-73.91474886588489,Brooklyn
93080,,,
95330,37.809400708641974,-121.29394483703705,Lathrop
94528,37.83684095,-121.954548,Diablo
93232,,,
93668,36.6450862,-120.2523201,Tranquillity
93790,,,
93622,36.8432599476923,-120.6977380646154,Fresno County
93203,35.0304227,-118.92090643636362,Kern County
95388,37.391863897714416,-120.61385838979736,Merced County
93926,36.50930646666667,-121.44435946666667,Gonzales
93933,36.65587805623722,-121.74156614989774,Monterey County
93912,,,
45501,39.926892,-83.808137,Springfield
93906,36.70936620946998,-121.65049078954783,Salinas
95073,36.99587653636364,-121.95722546363638,Santa Cruz County
93930,36.20919392391304,-121.1231331847826,King City
95004,36.95484445714286,-121.6825517,Santa Cruz County
93902,,,
38111,35.10872604668649,-89.94477103115265,Memphis
38114,35.10099362218649,-89.98330056304547,Memphis
03903,43.13670949012987,-70.78807603613636,Eliot
04076,43.5527450410953,-70.84773082652005,Shapleigh
60445,41.63666582326733,-87.73358484108911,Crestwood
60630,41.96700845347458,-87.75915107228813,Chicago
60172,41.979930077179965,-88.08544216790354,Roselle
13328,42.98818919039666,-75.42548983382046,Town of Marshall
60450,41.37381182351598,-88.4286568783105,Morris
86406,34.47807036363636,-114.27904743636363,Lake Havasu City
60192,42.09525029846626,-88.12697331073619,Hoffman Estates
76103,32.74836458782288,-97.26570808376384,Fort Worth
60443,41.507450678654294,-87.73219508886311,Matteson
02828,41.8722865,-71.53960592,Greenville
02722,41.69921335714286,-71.14840280476191,Fall River
02940,41.8259104,-71.4379074,Providence
02809,41.67697810405405,-71.27080046148649,Bristol
02885,41.72854866964286,-71.27910082857143,Warren
02837,41.48424738,-71.179597795,Little Compton
02814,41.90249699545454,-71.68279620909091,Glocester
02791,41.5185779,-71.07168896666666,Westport
02813,41.396786370731704,-71.65299862682927,Charlestown
50530,42.24517788666667,-94.04531211833333,Webster County
51002,42.70485512238806,-95.29531908955224,Buena Vista County
53208,43.049258051071725,-87.9671599998626,Washington Park
77387,30.3847024,-95.55567,Montgomery County
52301,41.769398091608394,-92.08593611888112,Iowa County
51060,42.04740497719298,-95.69683137368422,Monona County
51029,42.871889676,-95.550042996,Cherokee County
51458,42.30974766767677,-95.1935455949495,Sac County
44431,40.86331225826087,-80.75393021043479,Columbiana County
50680,42.4243517626506,-92.90378364096385,Grundy County
51645,40.911463827272726,-95.43740714545454,Mills County
69333,42.038429,-101.946549,Grant County
51050,42.7983431125,-95.98788243571428,Plymouth County
51246,43.41751606176471,-96.21324273529412,Lyon County
51001,42.82750482987013,-96.52867788181818,Plymouth County
51445,42.325130140789476,-95.46300986973684,Ida County
51239,43.20350684375,-96.1508893625,Sioux County
50452,42.7469405617647,-93.3501427117647,Franklin County
51448,42.187196304000004,-95.300665144,Crawford County
52318,41.8950765122807,-91.90372338070176,Benton County
52142,42.82004238640777,-91.80041467669903,Fayette County
02653,41.78795277317074,-69.99002524878048,Orleans
60065,,,
67232,37.6388709,-97.15639833333334,Gypsum Township
50230,42.309851546,-93.399473934,Hardin County
51545,41.81540035970149,-96.01782842089551,Harrison County
50046,41.8690088625731,-93.5344845134503,Union Township
51041,43.023063250793655,-96.04696595396825,Sioux County
51103,42.50554054077181,-96.44551735385906,Sioux City
50621,42.233724170873785,-92.88249292135923,Grundy County
51053,42.46286162191781,-95.2888775630137,Sac County
51040,42.02997979625,-96.100474085,Onawa
94913,,,
67831,37.187174885185186,-99.77051205925926,Ashland
52569,40.93483554047619,-93.04108909047619,Monroe County
52247,41.50449123655914,-91.7212856172043,Washington County
53821,43.047571604469276,-91.12175855614525,Prairie du Chien
50552,42.425619181818185,-94.4519142,Calhoun County
91224,,,
50237,41.54462115185185,-93.38316331333333,Polk County
50251,41.56530947413793,-92.85628713879309,Lynn Grove Township
51354,43.39336121704546,-95.52858896363637,Osceola County
52361,41.6597901768,-91.9967299576,Williamsburg
52772,41.74321607842324,-91.14073637510374,Cedar County
77038,29.9175333438914,-95.44092043846155,Harris County
78246,,,
78640,30.004712468150686,-97.85897641010274,Kyle
78727,30.42565081621359,-97.7119376045631,Austin
81426,37.8491946,-107.8845819,San Miguel County
86404,34.54418795157895,-114.35824802736843,Mohave County
98311,47.62694349475655,-122.61556708988765,Kitsap County
98496,,,
98325,47.98577682158019,-122.77993456167452,Jefferson County
46173,39.605624688174274,-85.44273860456433,Rushville
34653,28.243758429326046,-82.69616515100182,Pasco County
46241,39.73962043746551,-86.2515894945715,Indianapolis
46166,39.428114506,-86.575908368,Morgan County
46270,,,
46222,39.789162884994425,-86.2138551460498,Indianapolis
46217,39.66505207329599,-86.18259882822596,Indianapolis
97075,,,
29322,35.113228809804305,-82.1372156362333,Spartanburg County
96137,40.256997885714284,-121.0848275642857,Plumas County
92114,32.70736452801068,-117.05366814420648,San Diego
92284,34.12181651104101,-116.42248140441639,Yucca Valley
93412,,,
93444,35.03007428825757,-120.50929849397926,San Luis Obispo County
90033,34.048588295167285,-118.21213069330854,Los Angeles
92261,33.58524,-116.455253,Riverside County
91203,34.15172908245614,-118.25845998421052,Glendale
91207,34.16183694285714,-118.25037998571429,Glendale
92236,33.68058304327308,-116.18731706241202,Coachella
10035,40.79507013853384,-73.94112972293233,Manhattan
92202,33.7921393,-116.1861625,Indio
06359,41.45737074864997,-71.86995391202748,North Stonington
92313,34.03271380555556,-117.31807317222223,Grand Terrace
92693,33.518127,-117.5697137,Orange County
92324,34.054765913333334,-117.31999936266668,Colton
92549,33.74423845842696,-116.7172451,Idyllwild-Pine Cove
92276,33.79892984,-116.41643440962963,Rancho Mirage
92235,33.713809,-116.297746,La Quinta
95634,38.95665129166667,-120.73343935,El Dorado County
92247,33.6363659,-116.2372238,La Quinta
98206,48.0013189,-122.2218818,Northwest Everett
98282,48.192416741071426,-122.47944846160715,Island County
98231,49.000872,-122.683424,Blaine
98241,48.29691826418605,-121.56295786744187,Snohomish County
98233,48.481441293089226,-122.33849379196768,Burlington
98045,47.476518483279044,-121.76072637125795,Tanner
98272,47.85839701102362,-121.9799653503937,Monroe
98168,47.488933767693986,-122.30551675980577,Burien
98138,47.606038,-122.3319933,Seattle
98247,48.89414283448276,-122.31992418275861,Whatcom County
22645,39.02767228903225,-78.2529416516129,Frederick County
92335,34.09020363429951,-117.46580875289855,San Bernardino County
92401,34.105595171428575,-117.28766011428571,San Bernardino
92411,34.116546361290325,-117.31749085483871,San Bernardino
91785,34.1005023,-117.6467286,Upland
92408,34.07847485686275,-117.26949678823529,San Bernardino
90112,,,
92342,34.565636036538464,-117.40776788076923,Adelanto
92372,34.4450988,-117.6451744,Piñon Hills
92581,33.784248,-116.918987,Riverside County
07874,40.92196973137255,-74.70657610352941,Stanhope
11362,40.760155324940925,-73.73381094635876,Queens
10983,41.02661005626057,-73.94904116535533,Tappan
73049,35.59273040699433,-97.27455227202269,Jones
79311,33.827301759677425,-101.84340710806453,Abernathy
01965,42.55348152,-70.84541044,Beverly
55340,45.03814839277778,-93.52099836055555,Plymouth
80512,40.64409124280702,-105.41604261026316,Larimer County
07111,40.724591055607476,-74.22923173598132,Irvington
07029,40.74600049534884,-74.15673698449613,Harrison
30605,33.9264223394371,-83.34258878498945,Athens-Clarke County Unified Government
02637,41.705757,-70.272518,Barnstable
93563,34.4152289,-117.793927,Los Angeles County
49316,42.81490017565104,-85.54904373958334,Gaines Charter Township
23150,37.51517082728021,-77.27653243128087,Henrico County
19543,40.17190514,-75.89622927090909,New Morgan
98391,47.12715595955555,-122.18801991096296,Pierce County
76543,31.109302245022626,-97.69607347918551,Killeen
95407,38.41462824062391,-122.73204364057538,Santa Rosa
28561,35.09573515,-77.11730435,New Bern
53191,42.577759041803276,-88.54302915737705,Williams Bay
93286,36.41941625625,-119.1000547375,Woodlake
71032,32.10545858333333,-93.79014094583334,DeSoto Parish
44039,41.380478047428575,-82.01379207860317,North Ridgeville
27107,36.0321811351706,-80.18599380813649,Forsyth County
34697,,,
92078,33.12684523200822,-117.2053162532214,San Diego County
50510,42.761365096,-94.97445888,Buena Vista County
60962,40.61114863333333,-88.18886605555556,Roberts
21629,38.8741546435,-75.8302197105,Denton
71207,,,
71307,,,
71227,32.55665126666667,-92.48148876597222,Lincoln Parish
71171,32.523697,-93.716615,Bossier City
06155,41.769281,-72.686627,Hartford
02152,42.38122139761904,-70.98023504523809,Winthrop
63545,40.262993019999996,-92.94656140800001,Green City
01740,42.43561154634146,-71.6107985,Bolton
94605,37.657203025,-121.71285667142857,Alameda County
04261,44.519076110073264,-70.86559762802197,Newry
80545,40.77006451076923,-105.57720421307693,Larimer County
81428,38.86506927333333,-107.60136211333335,Paonia
85730,32.17517069170732,-110.81194717463414,Tucson
14879,42.30729892623356,-77.20022888988487,Town of Bath
83860,48.196776579268295,-116.56716485609755,Bonner County
96142,39.0684136,-120.13251195,Placer County
55807,46.73827390409556,-92.17132587610922,Cody
28012,35.22978320436508,-81.04348382976191,Belmont
61920,39.48740663027344,-88.18606479570313,Charleston
94519,37.97268879615385,-122.02546247692308,Concord
14560,42.67632558552036,-77.58115551365007,Town of Canadice
69153,41.11968832307692,-101.71532766730769,Ogallala
95018,37.05058039285714,-122.071007825,Felton
70445,30.32604065023585,-89.9279561731132,St. Tammany Parish
01368,42.6732022875,-72.18074718125,Royalston
89506,39.62575620282939,-119.85880951265402,Washoe County
95560,40.1176372,-123.8203088,Humboldt County
22963,37.89673196287314,-78.3031969761194,Fluvanna County
04538,43.852640394890926,-69.62520229730195,Boothbay Harbor
96727,20.076586468421056,-155.47031791052632,Hawaiʻi County
18974,40.203314705414016,-75.08029339639066,Warminster Township
05062,43.48092393411765,-72.55777207843137,Reading
86314,34.59481785581396,-112.33647608139535,Prescott Valley
51111,42.41607725,-96.37421951153846,Sioux City
92617,33.63930051719949,-117.83622959335038,University of California
01061,42.296173,-72.63525,Northampton
12525,41.67835403649123,-74.17164586128655,Town of Gardiner
96950,18.036471733333336,125.85314406333335,United States
81131,37.986267235,-105.71631799500001,Saguache County
53144,42.62203028076463,-87.90247691469534,Village of Somers
02156,,,
54814,46.82406608041237,-90.83665247474227,Town of Bayfield
02466,42.34324061666667,-71.24748791666666,Newton
95558,40.34730205,-124.3083284,Humboldt County
94020,37.33316163,-122.25389098,San Mateo County
26440,39.32915,-79.898086,Taylor County
01008,42.179145,-72.9242572,Blandford
10037,40.79915281520376,-73.94734265689655,Manhattan
37764,35.960872512195124,-83.60789510243902,Sevier County
63070,38.280141337569056,-90.41491344640885,Pevely
33761,28.027575678190257,-82.72919767470998,Pinellas County
83605,43.66201472,-116.66759531555554,Caldwell
99117,47.774075,-118.476931,Lincoln County
95946,39.21371255,-121.19044292916668,Nevada County
97131,45.7151924625,-123.89572965625,Nehalem
60071,42.46756592527473,-88.30569480659341,Richmond
22740,38.61234149142857,-78.23105092857142,Rappahannock County
13335,42.698795542087545,-75.24344079517397,Edmeston
94567,38.6156085,-122.4288596,Napa County
95725,,,
02196,,,
72403,,,
61301,41.345378486363636,-89.0928584916084,LaSalle
70079,30.0062104875,-90.41367909166667,Norco
99302,,,
60567,,,
75120,32.3352302,-96.6401051,Ennis
70452,30.393764280094786,-89.77267859146919,St. Tammany Parish
34288,27.05223693955224,-82.13168766666666,North Port
59523,48.57992222857143,-109.48032332857144,Blaine County
60441,41.606174049375,-88.018258449375,Lockport
60053,42.04282789848901,-87.79773612788462,Morton Grove
48318,,,
39421,31.37582426666667,-89.76685296388888,Marion County
85041,33.37673521298146,-112.09838886619114,Phoenix
54624,43.46042100490197,-91.16178067941176,Town of Wheatland
85005,33.4552252,-111.987779,Phoenix
85264,33.58004035714286,-111.67916787142856,Maricopa County
43525,41.46613088,-83.7049789,Haskins
98106,47.535598496631835,-122.35594057326588,Seattle
48386,42.64483729709678,-83.46313156532258,White Lake Charter Township
28310,35.12520735,-79.0056145,Cumberland County
03864,43.68915416034483,-71.12932008103448,Ossipee
03873,42.92691090668897,-71.18208908294314,Sandown
87531,36.2115733,-105.92022761666666,Rio Arriba County
99686,61.12805130925926,-146.3464764888889,Valdez
03861,43.13419296632653,-70.99181757959184,Lee
03883,43.82390861818182,-71.32962591818182,Tamworth
03449,42.976937049462364,-71.98199486774193,Hancock
03827,42.911166054666666,-70.98043468666667,East Kingston
03841,42.8837690009901,-71.1773295089109,Hampstead
03782,43.38238691991951,-72.08992457203219,Sunapee
18505,41.39107545469729,-75.66389599707723,Scranton
05254,43.16004872410714,-73.07147237767857,Manchester
97487,44.04340772775995,-123.34767316816432,Veneta
03224,43.34167014029851,-71.53941561791045,Canterbury
03813,44.00204458873239,-71.04495187323943,Conway
77279,,,
77270,,,
08091,39.80736611666667,-74.92425140789474,Berlin Township
46818,41.148059571308536,-85.20527275674762,Allen County
45338,39.84880763839286,-84.53802563035714,Lewisburg
45370,39.6104401796875,-84.0295714515625,Spring Valley Township
77071,29.65149078203125,-95.52027979088541,Houston
45405,39.7817785012,-84.20657547159999,Dayton
55089,44.59267862196722,-92.69812306655737,Welch Township
56633,47.36932434173913,-94.59449839043478,Cass County
86426,35.00463074615384,-114.59063817692308,Mohave Valley
89136,,,
89147,36.12588013737374,-115.275368710101,Spring Valley
43542,41.56365062533333,-83.75870125066666,Lucas County
43437,41.254182,-83.605048,Jerry City
43612,41.70496135675676,-83.55418501776062,Toledo
43611,41.707365148095235,-83.48769727595239,Toledo
97754,44.309536151129365,-120.83543478665297,Prineville
75156,32.29618735902336,-96.11632782717622,Henderson County
30116,33.58173720050378,-85.0192209302267,Carroll County
30546,34.9282580297491,-83.73626290681004,Towns County
77437,29.198162439090908,-96.27742817606061,El Campo
50111,41.68446413465608,-93.7826839968254,Grimes
52037,41.94519351458333,-90.59759633541667,Clinton County
52751,41.8142356779661,-90.65729937966101,Clinton County
52753,41.6105990562189,-90.37441589900497,Le Claire
52746,41.71472476511628,-90.68165727209302,Scott County
52768,41.685420786138614,-90.37100781683168,Scott County
71663,33.246016479069766,-91.50902407674418,Ashley County
72396,35.22770169915967,-90.79843709327731,Wynne
52773,41.61117009222222,-90.75551166666666,Hickory Grove Township
52748,41.66150288047619,-90.56779446428573,Eldridge
52754,41.335120642268045,-91.23771251649485,Letts
52767,41.57139963214286,-90.42118369285714,Pleasant Valley Township
52730,41.786531169999996,-90.28527735499999,Camanche
52580,41.12466869,-92.06495873,Jefferson County
53955,43.39971894761904,-89.42569077989418,Town of Dekorra
61273,41.35503714016394,-90.39110038688526,Henry County
52641,40.96833208510242,-91.56562335530725,Mount Pleasant
52322,41.7047060147541,-91.770157247541,Oxford Township
93447,35.65003395,-120.67642835,Paso Robles
91502,34.180640349837134,-118.31017518241043,Burbank
93432,35.45738353555555,-120.49204387333333,San Luis Obispo County
93932,35.9412157,-121.0834764,Monterey County
93464,34.594862475,-120.1402305,Solvang
77076,29.854722854465336,-95.37759910945945,Houston
77226,,,
93120,,,
34712,,,
92192,,,
93441,34.676872335000006,-120.11613925,Santa Barbara County
90022,34.02452132930056,-118.15528404706996,East Los Angeles
93266,36.1877965,-119.8223362,Kings County
94576,38.4127415,-122.44641955,Napa County
95402,38.43985465,-122.71046505,Santa Rosa
95446,38.507636021052626,-122.994009,Guerneville
95433,38.68869405,-122.7084392,Sonoma County
49403,43.123278591071426,-85.86321383928572,Chester Township
74804,35.36404962266949,-96.93160517902542,Shawnee
49345,43.15845083862816,-85.68552747761733,Sparta Township
49501,42.9422629,-85.6598627,Third Ward
49333,42.703233072265625,-85.47514092070313,Thornapple Township
49060,42.42038824666666,-85.39715718,Barry Township
77207,,,
49343,43.284718820398005,-85.50716499004976,Nelson Township
71611,34.2306504,-92.0044886,Pine Bluff
52205,42.09520585217391,-91.2841870821739,Jones County
50644,42.46591747588496,-91.88862645707965,Independence
52175,42.97646577571428,-91.81330934380952,Fayette County
29204,34.02309421081081,-81.00515499980695,Columbia
39823,31.378419099186992,-84.9345590300813,Blakely
52627,40.634555330240545,-91.33818259828179,Fort Madison
52214,42.191084351012144,-91.49853648623483,Linn County
52329,42.35271837536232,-91.82671199275363,Buchanan County
50676,42.793312317391305,-92.27749168586956,Bremer County
50061,41.50121354181818,-93.77958576545454,Linn Township
06069,41.86788766673387,-73.45965836807795,Sharon
06068,42.00905325865604,-73.41012578394079,Salisbury
06520,41.30693036,-72.93242144,New Haven
06777,41.69032558256684,-73.34397929016043,Washington
94805,37.94547934857651,-122.31646213594306,Contra Costa County
06724,,,
06786,41.674952513661346,-73.00910163198115,Plymouth
02562,41.788566975,-70.538623575,Bourne
06514,41.362084775,-72.93816233340529,Hamden
06360,41.53636941160104,-72.0840174102338,Norwich
06755,41.6465915627027,-73.48014024180179,New Milford
05776,43.26023555628141,-73.19407788291457,Rupert
06480,41.587880158535825,-72.61090655841122,Portland
06801,41.38183384461431,-73.39957859249479,Bethel
12073,,,
06753,41.8365325,-73.3318109125,Cornwall
06011,41.68062515,-72.93767035,Bristol
06110,41.734004931547,-72.73378784837764,West Hartford
06447,41.64008866471085,-72.45985330865344,Marlborough
06129,,,
96017,41.13287896666667,-122.32310936666667,Shasta County
96071,40.6621861,-121.4411745,Shasta County
96020,40.30141606944444,-121.23675538055556,Chester
06331,41.683571935418236,-71.99756199525245,Canterbury
31131,,,
30296,33.566422489831325,-84.46204480944579,Fulton County
30227,,,
90059,33.927520307865166,-118.24680371910112,Willowbrook
02744,41.61219426721311,-70.91839260819673,New Bedford
02045,42.29942641851852,-70.9010677037037,Hull
02726,41.739070705555555,-71.15683663333334,Somerset
02770,41.77316240454546,-70.83283402272727,Rochester
02464,42.31144035714286,-71.21836927142857,Newton
02633,41.68235363023256,-69.97372920930233,Chatham
66436,39.46145885208333,-95.720463621875,Jackson County
98841,48.40691416538461,-119.51831076923077,Omak
99029,47.6679302,-117.89785952222223,Lincoln County
99022,47.572984288,-117.676163216,Medical Lake
99166,48.7296253969697,-118.67677435353534,Ferry County
99021,47.76944687837838,-117.36449169729728,Spokane County
48815,42.83550410519481,-85.25795838441557,Campbell Township
45832,40.93270825202703,-84.73254838851352,Van Wert County
97442,42.73461358372093,-123.42242618139534,Douglas County
40218,38.19289396417766,-85.65492824557386,Louisville
95061,36.976137,-122.029087,Santa Cruz
39183,32.3897534606264,-90.82222319619687,Warren County
39059,31.985322275261325,-90.34355571289198,Crystal Springs
56143,43.61306274251968,-94.9990952968504,Jackson
84601,40.240792953230766,-111.68673645538462,Provo
75090,33.645692113225806,-96.59407142612903,Sherman
78606,30.08900275220126,-98.40169871132076,Blanco
78226,29.392348892156864,-98.55448014705883,San Antonio
34731,28.860415984362938,-81.89978626795367,Fruitland Park
70007,,,
03583,44.40076851764706,-71.45617873529412,Jefferson
08067,39.745545764102566,-75.41132091538462,Oldmans Township
42441,37.36174212666666,-87.62559892666667,Hopkins County
42450,37.396036861643836,-87.763815080137,Providence
41250,37.768171,-82.44857,Martin County
74121,,,
40510,38.067814889285714,-84.58848949642858,Lexington
47670,38.35183188848168,-87.5694073329843,Princeton
05761,43.351268777446805,-73.16603292765957,Pawlet
05346,43.012344451612904,-72.51239571166253,Putney
05053,43.718661868020305,-72.48945952994923,Pomfret
05340,43.156422883632736,-72.91689123293413,Winhall
05860,44.791742238282644,-72.12701317030412,Barton
02379,42.02093464523809,-71.01262399047619,West Bridgewater
90831,33.768179,-118.19977,Long Beach
77578,29.504638581800002,-95.3794584404,Manvel
78541,26.321292552542374,-98.16075266440677,Edinburg
78802,29.218822,-99.7686296,Uvalde
78577,26.181134801931037,-98.1879408737931,Pharr
37683,36.46201829285714,-81.81089046657142,Johnson County
93534,34.689559567258385,-118.14133602820513,Lancaster
90075,34.047186,-118.288932,Los Angeles
91755,34.04449879469026,-118.11714439469027,Monterey Park
90660,33.99043386746032,-118.08728378743386,Pico Rivera
76005,32.81004906084656,-97.07614042804232,Arlington
76012,32.745571882596685,-97.14192693839779,Arlington
28246,,,
60110,42.122580404656865,-88.28125008235294,Carpentersville
45254,,,
64132,38.99538726353791,-94.5494548465704,Kansas City
92859,,,
75043,32.85199657658863,-96.604731359699,Garland
77905,28.77003430728972,-97.06134365532711,Victoria County
79533,32.786208604651165,-99.62838293953487,Jones County
29819,34.06594883611111,-82.22465828333334,Greenwood County
43150,39.77337938636364,-82.416126325,Richland Township
16917,41.740539,-77.0699099,Covington Township
13331,43.808717525186104,-74.85569696066997,Town of Webb
64762,37.57243078695652,-94.50094843478261,Barton County
30175,34.52476196666667,-84.51165144054055,Pickens County
98629,45.87454139804853,-122.63536218715718,Clark County
12549,41.52929087724344,-74.24402682797975,Village of Montgomery
17578,40.21770011319444,-76.15065240138888,East Cocalico Township
95860,,,
24368,36.88450532935779,-81.30160840733946,Wythe County
77840,30.61958767815275,-96.34792280470693,College Station
12443,41.92657914364407,-74.0670930620233,Town of Hurley
95117,37.30923122449853,-121.96346906217039,San Jose
95140,37.347217797727275,-121.6437217840909,Santa Clara County
48767,43.65170226865672,-83.52355442089552,Akron Township
99576,59.036042542857146,-158.4907672,Dillingham
99725,64.84579396666666,-148.01929883333332,Fairbanks North Star
73573,34.16843192461538,-98.00059575538461,Waurika
79245,34.72474052,-100.53332778,Memphis
74075,36.14310579776328,-97.05378115316869,Stillwater
73544,34.669253,-99.7700731,Gould
74636,36.80505595,-97.5186731,Deer Creek
73522,34.7238385,-99.3858157,Martha
92244,,,
73750,35.8522973590604,-97.93553934697987,Kingfisher
73014,35.551909197142855,-98.14718270857144,Canadian County
73550,34.686306597435895,-99.91746467307692,Hollis
73801,36.42968145555556,-99.40320495460317,Woodward
73539,34.47992965,-99.3519638,Elmer
73549,34.6269923,-99.13976795,Headrick
73566,34.65510725084746,-98.95230133898305,Snyder
73762,35.72681617586207,-97.9776428586207,Okarche
73632,35.29549098039216,-98.98860995588235,New Cordell
73766,36.667999548000004,-97.79825666,Pond Creek
79095,34.85244041428572,-100.21252304285714,Wellington
92233,33.14755690909091,-115.55044621818182,Imperial County
39862,31.487223572,-84.512385472,Leary
36541,30.494857224696357,-88.33534720728746,Mobile County
74056,36.652313901086956,-96.3540155201087,Osage County
73654,35.86981361666667,-99.344573475,Leedey
73532,34.66215112,-99.57118846,East Duke
74066,35.99590776289105,-96.11569432837108,Sapulpa
74026,35.707075294444444,-96.76534197222222,Davenport
73528,34.42331663333333,-98.65361105,Chattanooga
73015,35.10313365925926,-98.60037454074075,Carnegie
10473,40.817800974136695,-73.85689688296763,The Bronx
12602,,,
12586,41.561403641433806,-74.17530755752554,Village of Walden
10524,41.359714729582265,-73.91875710507246,Town of Philipstown
10155,40.7598782,-73.9650737,Manhattan
10587,40.9842872,-73.7885225,Village of Scarsdale
12764,41.598333059213,-75.01018524422237,Town of Tusten
08810,40.37707339174312,-74.50895771559632,South Brunswick
43512,41.286882967846154,-84.35894398707693,Defiance
12498,42.03632165269313,-74.11240009199754,Woodstock
90301,33.98204228428571,-118.37019372964286,Los Angeles
34760,28.557115139999997,-81.63856928,Oakland
10916,41.44171744518477,-74.247430112598,Town of Hamptonburgh
10941,41.481041301767554,-74.36133894313824,Scotchtown
12528,41.71743931774806,-73.99216145420175,Town of Lloyd
10953,41.43738545,-74.22124775,Town of Hamptonburgh
10606,41.02524742378693,-73.77686512769031,City of White Plains
01833,42.721623111363634,-70.99218728181819,Georgetown
01882,,,
22534,38.06410936197183,-77.66477417464789,Spotsylvania County
01864,42.573967886666665,-71.10714484500001,North Reading
02339,42.12507776333333,-70.84607330333333,Hanover
02047,42.135163,-70.688625,Scituate
20861,39.14806173684211,-77.00369347631579,Montgomery County
01860,42.82894819166667,-71.007552125,Merrimac
02324,41.96723465869565,-70.96788621956522,Bridgewater
01952,42.84340441333333,-70.87273646666667,Salisbury
01463,42.66709018076923,-71.59831118846154,Pepperell
30549,34.10948609083095,-83.57865017994268,Jefferson
66072,38.309397780000005,-94.96855561142857,Linn County
04019,43.69653358711341,-70.10521032886598,Portland
02149,42.409347208948546,-71.04180662270694,Everett
01473,42.54671203636364,-71.91225713636364,Westminster
01475,42.67592772857142,-72.04038093571428,Winchendon
01827,42.67904944401914,-71.48235603349283,Dunstable
34218,27.504386225,-82.711763975,Holmes Beach
00013,,,
88477,,,
78043,27.516695204724407,-99.46952817716536,Laredo
03931,,,
88349,32.78967807,-105.8183407,Otero County
09811,,,
62635,40.297956145,-89.4767832225,Logan County
29461,33.16775881068773,-80.02240112592936,Berkeley County
65801,37.2139647,-93.2952253,Springfield
60005,42.062299013034625,-87.98148768391039,Arlington Heights
60106,41.95207780448549,-87.94750291530343,Bensenville
79101,35.2055259965625,-101.8403722915625,Amarillo
84171,,,
85615,31.385718429925184,-110.15665116159602,Cochise County
78102,28.42234745747001,-97.76150075245364,Bee County
79738,32.77317649846154,-101.44920616,Gail
61232,41.43855148611111,-90.72147873333334,Andalusia
61279,41.32878325070422,-90.70380390422535,Mercer County
61204,,,
54545,46.131780451351354,-89.84423091486487,Town of Manitowish Waters
54666,44.11423363684211,-90.49628100921052,Town of Lincoln
08215,39.53137290757576,-74.6084632715909,Galloway Township
02761,,,
02366,41.8505449,-70.661263,Plymouth
54466,44.42365353782383,-90.2067842492228,Town of Hiles
02346,41.890164618,-70.906039018,Middleborough
02347,41.80851066111111,-70.99772792777777,Lakeville
02330,41.88651629666666,-70.76904422666667,Carver
02571,41.76533587837838,-70.72211590810811,Wareham
54495,44.393291,-89.85761171460177,Wisconsin Rapids
54646,44.03345216945454,-90.05967810690909,Necedah
54457,44.23208889761431,-89.84125119025845,Town of Rome
02367,41.961905936363635,-70.81394498181818,Plympton
02532,41.7434665970297,-70.59873412970298,Bourne
54660,43.98855416476684,-90.49716363082901,Tomah
27102,36.104117,-80.2481502,Winston-Salem
46016,40.099242362440194,-85.68098009090909,Anderson
15032,40.64682563333333,-79.8455108,West Deer Township
74134,36.10650276237219,-95.80887841226993,Tulsa
33810,28.109212930792225,-82.01186855769807,Polk County
54859,46.1127611581121,-91.84133823082595,Town of Minong
01105,42.09990620625,-72.58216434375,Springfield
06255,41.98852731977343,-71.8980546138517,Thompson
32025,30.146234267475403,-82.61970745954831,Columbia County
84054,40.8469211765625,-111.9154971984375,North Salt Lake
46750,40.878364308069166,-85.49571996527378,Huntington
28793,35.47529495,-80.20907205,Stanly County
75501,33.42038210972222,-94.08487486076389,Texarkana
13032,43.09485719153448,-75.76347545268695,Village of Canastota
35592,33.754004685714285,-88.10234484928571,Vernon
15134,,,
38802,35.2961521,-89.6647688,Arlington
50315,41.54732479809688,-93.61966895795847,Des Moines
90248,33.87912824326923,-118.28482257147436,Los Angeles
61356,41.37655809634146,-89.44379145439024,Princeton
54853,45.56367367173913,-92.44024261652174,Town of Luck
78626,30.626705450500594,-97.65135124967443,Georgetown
24472,37.934749586657,-79.23228305032633,Rockbridge County
61275,41.59460943781512,-90.32345488487395,Rock Island County
12072,42.90760763270736,-74.3726279084507,Town of Glen
92880,33.94299812870013,-117.57980149543114,Eastvale
98668,,,
27502,35.72881623838175,-78.88705654432918,Apex
78415,27.731807039243503,-97.41657571796691,Corpus Christi
37849,36.04728778353222,-84.02859176945107,Powell
45323,39.8694343610687,-83.9309507053435,Clark County
54302,44.50493466585366,-87.97565918861788,Green Bay
65711,37.147584231225295,-92.27360778379446,Mountain Grove
53086,43.323692984115524,-88.28111677184116,Slinger
91114,,,
89034,36.83391143529411,-114.11893937647059,Mesquite
97530,42.31171625454546,-122.96224092272728,Jacksonville
78956,29.688744733962263,-96.92601281509434,Fayette County
29941,32.5793149125,-80.79213007,Beaufort County
12184,42.42778604134297,-73.66579798919001,Town of Kinderhook
47037,39.15225192944786,-85.30459869079755,Ripley County
18969,40.32459760384616,-75.34626443076922,Franconia Township
56437,46.258026144680855,-95.03837337234043,Todd County
97026,45.12064987894737,-122.88899724210528,Marion County
45845,40.3314815625,-84.37830526826923,Shelby County
37359,35.20479595064935,-86.39986849220779,Lincoln County
33575,,,
33527,27.991454757480316,-82.2209429452756,Hillsborough County
21919,39.42361428461538,-75.96417429903846,Cecil County
03046,43.10009720701754,-71.60691510701754,Dunbarton
03082,42.89294246410257,-71.74663583333334,Lyndeborough
98405,47.245823181212124,-122.46289688363636,Tacoma
07451,40.9792699,-74.11760116666666,Ridgewood
91306,34.206351846153844,-118.57261833461537,Los Angeles
74169,36.1382933,-95.7881841,Tulsa
75760,32.04260116666667,-94.7182655,Rusk County
97439,43.99367802436626,-124.10319342620986,Florence
27810,35.54107886003185,-76.62071650350317,Belhaven
94012,,,
16056,40.73380142987805,-79.83242403353658,Clinton Township
27055,36.11274668901099,-80.65091607692307,Yadkin County
51566,41.01474948704319,-95.23199359069767,Red Oak
45877,40.94760263972602,-83.95539089178082,Pandora
91304,34.215641048120304,-118.632053718797,Los Angeles
39705,33.557835193409744,-88.42739406962751,Lowndes County
39194,32.84402015319488,-90.42604763626197,Yazoo City
13142,43.57022823309234,-76.14879616360257,Town of Richland
39303,32.2154766,-88.7892434,Clarke County
13090,43.1522231979165,-76.22431272403088,Town of Clay
38702,33.4005998,-91.0100192,Greenville
72714,36.46923668229285,-94.21728274824731,Bella Vista
48854,42.582435344345235,-84.44906595208333,Mason
13839,42.255118573236516,-75.25530222458505,Town of Masonville
67337,37.04154847638889,-95.62238072986112,Coffeyville
91912,,,
60196,42.06579254,-88.06264432,Schaumburg
94551,37.70162885549738,-121.77289881675394,Alameda County
03109,42.96063045245536,-71.40558688258928,Manchester
55107,44.92931083219178,-93.08487649497717,West Side
43830,40.03955712705882,-82.11341510294118,Muskingum County
72012,35.08308353368794,-91.89641856134752,Beebe
72766,36.1968927,-94.1769273,Springdale
37924,36.02796938284884,-83.81084877616279,Knox County
30008,33.89567355784983,-84.58692584897611,Cobb County
17965,40.69777935123967,-76.16646032479339,Port Carbon
05359,43.16458054522968,-72.72185391130742,Windham
10113,,,
95024,,,
05647,44.406835863157895,-72.29498597543859,Cabot
05673,44.18502488107527,-72.84872841247312,Fayston
10566,41.29051352366262,-73.91533994048632,City of Peekskill
05660,44.254512744578314,-72.72835421526104,Moretown
32603,29.65760096772152,-82.3455992221519,Gainesville
27419,,,
27030,36.500268566864094,-80.6258775911484,Mount Airy
28370,35.196458,-79.531794,Moore County
27404,36.089129,-79.691014,Guilford County
27048,36.46328126704545,-79.90074026136364,Stoneville
27007,36.389074910000005,-80.58914168333334,Surry County
27313,35.93758610326087,-79.75321016358696,Pleasant Garden
12210,42.65645536425984,-73.76030083289061,City of Albany
57015,43.4607669,-96.97418905,Home Township
57540,44.517252,-99.607134,Hyde County
78381,28.024851525,-97.0658708,Aransas County
33811,27.973898471428573,-82.00666207788018,Polk County
35056,34.2096744,-86.85392572,Cullman
57041,43.72226667777778,-96.86940861111111,Lyons Township
98201,47.98568609319149,-122.20407297957446,Bayside
50647,42.64449168695652,-92.47989915652174,Bremer County
74601,36.71552471655173,-97.08567120528735,Ponca City
30642,33.52414333741259,-83.20047757587413,Greene County
67467,39.130394159615385,-97.71722316057692,Ottawa County
78336,27.913125267866324,-97.15755682262211,Aransas Pass
20607,38.66995324412589,-77.0071629385859,Accokeek
77708,30.140566509782605,-94.16035071123189,Beaumont
46574,41.472812954089704,-86.48906797361478,Walkerton
84404,41.26931170843373,-111.99485883674699,Ogden
55363,45.052186904301074,-93.90771153870968,Woodland Township
15681,40.50670760859375,-79.424866775,Conemaugh Township
56474,46.72698690582524,-94.40412037864077,Pine River
68047,42.0663085453125,-96.750585490625,Cuming County
80513,40.30169601428571,-105.05386432467532,Berthoud
87025,35.82627255789474,-106.65566684210526,Sandoval County
21050,39.57876782843713,-76.3770177672738,Harford County
20676,38.48967023487242,-76.53367143523694,Calvert County
53120,42.79353327203167,-88.38442704986807,East Troy
46807,41.048342655016135,-85.14585724466119,Fort Wayne
05152,43.244380269953055,-72.88105791408451,Peru
21229,39.285235831096585,-76.689386465904,Baltimore
17820,40.88664960526316,-76.40424960526316,Locust Township
81656,39.2716785375,-106.88740305,Pitkin County
15224,40.46199073816794,-79.95051296081425,Pittsburgh
17408,39.97116222409565,-76.79788835564071,Shiloh
61085,42.34731327214612,-90.02819122534247,Stockton Township
38134,35.1876969150925,-89.86608316893866,Bartlett
74873,35.25734107222222,-96.95093845722222,Tecumseh
19946,39.04256941203704,-75.4599503287037,Kent County
99016,47.66217893157894,-117.19332696842105,Spokane Valley
90231,,,
94933,38.0151225,-122.6896372,Marin County
77552,29.294028,-94.7834905,Galveston
36606,30.673973384177213,-88.10058350084388,Mobile
83634,43.49806358747405,-116.40694068239908,Kuna
96913,13.497628172527472,144.79152176263736,Tamuning
84532,38.578073015656564,-109.55462346717172,Moab
92661,33.60201017475974,-117.89976074820434,Newport Beach
29154,33.89780893652531,-80.423012899316,Sumter County
55442,45.03846392368421,-93.41776108421053,Plymouth
34605,,,
80922,38.891699433497806,-104.7025047004386,Colorado Springs
81215,38.43975645,-105.20317955,Fremont County
29802,33.67081525,-81.65268715,Aiken County
83123,42.2439988,-110.30348196444444,Lincoln County
49348,42.683349674454824,-85.61501403862928,Leighton Township
48061,43.014836583333334,-82.45029958333333,Port Huron
77016,29.848231766,-95.31317122442857,Houston
23841,37.07440465352423,-77.5634913962555,Dinwiddie County
39090,33.058835439495795,-89.59263350378151,Kosciusko
29720,34.734311102132196,-80.7521176848614,Lancaster County
68067,42.14834213636364,-96.49362482727273,Walthill
83541,46.504587666666666,-116.48036973333332,Nez Perce County
83619,44.01003128780488,-116.92284917073171,Fruitland
29020,34.27759273667426,-80.58896395671981,Kershaw County
54136,44.26704764782609,-88.3342765173913,Kimberly
43056,40.015799724137935,-82.39550525145889,Licking County
43040,40.25536870041916,-83.37203707556887,Paris Township
77399,30.6422254,-94.8720705,Polk County
71078,32.271312472340426,-93.81258458170213,Stonewall
39828,30.858561282249998,-84.207385563,Cairo
01832,42.76979422307692,-71.10274228653846,Haverhill
90723,33.9031993015873,-118.15587790337302,Paramount
62839,38.6655881,-88.49108030449437,Flora
68316,41.005444385714284,-97.60752162857143,Benedict
78253,29.462466962653206,-98.73701481751984,Bexar County
13808,42.53401871544256,-75.25143190075329,Town of Morris
77979,28.621954849382718,-96.62473150617284,Port Lavaca
76309,33.892695785,-98.53494285733333,Wichita Falls
77583,29.4698285659375,-95.460293535,Fort Bend County
96146,39.204006191860465,-120.22210241860466,Placer County
40741,37.13191674250721,-84.07222420317002,London
89315,39.287842014285715,-114.8341729,White Pine County
85128,32.97568505846994,-111.50585885792351,Coolidge
78113,28.977714710526318,-98.04914377368422,Karnes County
78280,,,
91303,34.19716277115384,-118.60198695192308,Los Angeles
77357,30.155284308596492,-95.20452846350878,Montgomery County
13401,43.263886,-75.715881,Town of Vienna
45865,40.3826361964539,-84.36553586028369,Auglaize County
52004,,,
78801,29.21642381982507,-99.78773773760933,Uvalde
64840,36.99986784,-94.33663801714286,Newton County
80161,,,
49096,42.631285164912285,-85.00957080964912,Vermontville Township
32447,30.7433986,-85.25594185,Marianna
41076,39.00854638238806,-84.4349218241791,Cold Spring
70455,30.507169695652173,-90.33057532608696,Tangipahoa Parish
41005,39.019758670182554,-84.71516872413792,Burlington
76487,32.98415448478261,-97.86422485869565,Parker County
39039,32.83826838490566,-90.24133378490566,Yazoo County
92866,33.7849317028098,-117.84466128052354,Orange
19530,40.54690304918919,-75.76644181513514,Maxatawny Township
84066,40.302585902272725,-109.99152374772727,Roosevelt
32730,28.652262239705884,-81.34170110147059,Seminole County
73628,35.61093293333333,-99.6712783,Cheyenne
01610,42.25451028785047,-71.81651116074767,Worcester
02630,41.700538314285716,-70.3015678095238,Barnstable
01719,42.48813056428571,-71.519808,Boxborough
01550,42.073181003125,-72.0318797625,Southbridge
01585,42.22883032307692,-72.14960803846154,West Brookfield
01027,42.298632908791205,-72.72541778461539,Northampton
01566,42.112824835000005,-72.0816484275,Sturbridge
01520,42.33349177969925,-71.8430874924812,Holden
02675,41.7016091625,-70.24830629375,Yarmouth
01588,42.11699061739131,-71.65429210543479,Northbridge
01863,42.62324488,-71.37906167999999,Chelmsford
40252,,,
02338,41.99224335,-70.855327325,Halifax
01518,42.118744545,-72.11588154500001,Sturbridge
70359,29.68977336456693,-90.7715946456693,Terrebonne Parish
70094,29.92124890156142,-90.19200929479526,Avondale
01450,42.61301769560243,-71.56450167779764,Groton
01527,42.20017038846154,-71.76981283076923,Millbury
01264,42.25090965,-73.2170042,Tyringham
35771,34.54502852631579,-85.98597097368422,Jackson County
35049,33.96450786229508,-86.59742749590164,Blount County
35907,33.90384658097345,-86.02937301371682,Southside
35748,34.72037931101322,-86.4020869215859,Madison County
35553,34.153912088495574,-87.40803304336283,Double Springs
36350,31.317791678571428,-85.49497454464286,Midland City
35968,34.4580284590164,-85.76564500655738,Fort Payne
35091,33.76935687714286,-86.80873181714286,Kimberly
35233,33.50748535,-86.80139731428572,Birmingham
35967,34.440121617180615,-85.70919168127753,Fort Payne
35989,34.568043025,-85.65121078333334,DeKalb County
32148,29.634249186190473,-81.87865456,Putnam County
02865,41.913423924444444,-71.44719779333333,Lincoln
27944,36.14534603365079,-76.41492168095238,Perquimans County
46573,41.536907412765956,-86.01228511595745,Wakarusa
56267,45.587468938383836,-95.91040427171717,Morris
62837,38.380629124161075,-88.36548698456376,Fairfield
81052,38.08811565100402,-102.61870165220884,Lamar
67547,37.92286462741935,-99.41226363548387,Kinsley
71674,33.88001219375,-91.2556696875,Desha County
27826,35.5391847,-76.20408805,Hyde County
93624,36.4292742,-120.1049736,Fresno County
88253,33.5599348,-111.9624208,Paradise Valley
39145,32.32969351027398,-89.79588925068492,Pelahatchie
72003,34.41300140476191,-91.38844909523809,Arkansas County
57436,44.890804,-98.104457,Doland
38614,34.20242240058309,-90.57961346209912,Clarksdale
83606,,,
71418,32.127430615902135,-92.08464333577982,Caldwell Parish
63877,36.08071161904762,-89.83408810761905,Steele
39834,30.898785163235296,-84.42251246176471,Decatur County
92232,34.7349504,-115.2444202,San Bernardino County
71254,32.80503148846154,-91.18957348846155,East Carroll Parish
79261,34.390197,-100.8950739,Turkey
30401,32.59823085726744,-82.3368899869186,Swainsboro
57101,43.5152385,-96.7490687,Sioux Falls
89143,36.3198372125,-115.2969628625,Las Vegas
42142,,,
74471,35.821897096774194,-94.87127812903225,Cherokee County
42502,,,
20035,,,
30536,34.64789807078189,-84.3991994802469,Gilmer County
30512,34.871167794896856,-84.00027592410424,Union County
30165,34.280076623006536,-85.22052549202614,Rome
30135,33.69596031080602,-84.74341209406555,Douglas County
76208,33.186503374013355,-97.06880172568306,Denton
40025,38.303886154411764,-85.64879395294118,Glenview
40208,38.22090568260981,-85.76519939761236,Louisville
72386,35.460910007291666,-90.35753350520834,Poinsett County
72642,36.37630762441275,-92.53507906073825,Lakeview
72503,,,
72858,35.243358210305345,-93.05656254732824,Pottsville
42376,37.6265386322314,-87.0809201553719,Daviess County
41071,39.08301660292208,-84.48751399285715,Newport
40228,38.13844170043035,-85.62884268196237,Louisville
42261,37.2228536686747,-86.6831212124498,Morgantown
40118,38.1080131965867,-85.7560101025356,Louisville
40031,38.4063945880734,-85.3865185428899,La Grange
32051,,,
25661,37.675971507999996,-82.27271619199999,Williamson
40212,38.26487562147763,-85.80271975912716,Louisville
07921,40.65614051527778,-74.651443125,Bedminster Township
07844,40.911287771428576,-74.96606338571428,Hope Township
07962,40.8057449,-74.4990229,Morris Township
07821,40.96397188310345,-74.74085497,Byram Township
08758,39.79380527933118,-74.18931311172442,Ocean Township
08511,40.03991730625,-74.562249940625,New Hanover Township
12563,41.488439864833616,-73.58023055028201,Town of Patterson
19057,40.142446454741375,-74.85937128922414,Bristol Township
08809,40.641334056875,-74.911482044375,Clinton
07750,40.33332295675676,-73.98189710135135,Monmouth Beach
08880,40.55428126184211,-74.52915045394737,South Bound Brook
10468,40.8653597105713,-73.90035934188035,The Bronx
08052,39.95051202922636,-74.99295699197707,Maple Shade Township
07077,40.54576228765432,-74.25998204444444,Woodbridge Township
08754,39.961827039999996,-74.16773703999999,Toms River
19028,39.97001,-75.446069,Edgmont Township
08210,39.0906637237467,-74.82857877335091,Middle Township
07045,40.89627487916976,-74.35586723573017,Montville Township
08562,40.059705618548385,-74.60322088870967,North Hanover Township
07723,40.25624366842106,-73.99855256710526,Deal
08859,40.458279399999995,-74.30189374566412,Sayreville
07735,40.438368170780855,-74.1995466163728,Keyport
08247,39.05116841298701,-74.7632611987013,Stone Harbor
07764,40.28508176632653,-74.02276751173468,West Long Branch
84129,40.65023657165856,-111.9674007640584,Taylorsville
02892,41.495417028571424,-71.5845482,South Kingstown
02769,41.84712289285714,-71.24907424642858,Rehoboth
02929,,,
72802,35.29188631479401,-93.13220836420881,Russellville
71921,34.25790039380952,-93.44883764,Clark County
78578,26.080772557931034,-97.24228804275862,Port Isabel
71832,34.04306197024221,-94.34105116747405,De Queen
72833,35.06175996888889,-93.37901126539683,Yell County
72738,36.20760520885417,-93.91514969947916,Washington County
71665,33.93064268,-92.11325292413792,Cleveland County
71968,34.50796543456221,-93.24045662119815,Garland County
76105,32.73126426167453,-97.2803862418632,Fort Worth
76124,,,
76163,,,
57242,44.769038,-97.353895,Brantford Township
57476,44.724539,-98.623094,Lake Township
57633,45.393774,-101.431734,Isabel
57467,44.826468,-99.129625,Hand County
57568,43.9051789,-100.058515,Presho
57249,44.3641978,-97.3774872,Lake Preston
56271,45.28818301052632,-95.45616187105263,Swift County
57022,43.818654748214286,-96.7404533625,Dell Rapids Township
57221,44.5902546,-97.4681134,Bryant
57311,43.652295,-97.773463,Alexandria
57555,43.30234412222222,-100.6347793,Antelope
57042,44.004715808421054,-97.11177042105264,Madison
29556,33.67370857733333,-79.79788493619047,Williamsburg County
57769,44.21883186,-103.36509493999999,Summerset
57027,43.1850671,-96.5099791,Fairview Township
57523,43.26053883333333,-99.25221053333334,Gregory County
57013,43.29853387884616,-96.59733077307693,Canton
57217,45.088023,-97.645067,Bradley
56244,45.493362319999996,-95.75889269818182,Stevens County
57541,43.54667524,-99.89994247999999,Tripp County
57373,44.539843,-98.884668,Hand County
57342,43.1673624,-98.8212248,Jackson Township
57232,45.620333,-97.372645,Buffalo Lake District
57380,43.075180525,-98.29809475,Wagner
57576,43.922319,-100.290984,Lyman County
57323,44.1959445,-97.7897195,Esmond Township
57075,43.99662845454546,-96.96396853636364,Wentworth
57703,44.07271200718563,-103.17341147784431,Rapid City
57552,43.8906422,-101.1476982,Jackson County
57069,42.78782881392405,-96.93206968101265,Vermillion
79930,31.942597785000004,-105.94072726,Hudspeth County
57025,42.69787327575757,-96.66995313636363,Elk Point Township
57353,44.3480338,-97.84139623333334,Kingsbury County
57644,45.469854,-102.198289,Perkins County
57109,,,
57248,44.567400375,-97.1885866,Norden Township
57273,45.356269,-97.300117,Enemy Swim District
57720,45.58879,-103.5451664,Buffalo
57585,43.516793,-100.443206,Butte Creek Segment
57035,43.642432201724134,-97.0717737413793,Humboldt
57722,43.4909899,-103.320518,Custer County
57430,45.75605694615384,-97.73308744615385,Marshall County
57271,44.700911,-97.453625,Dixon Township
57732,44.374562646381584,-103.72982093322369,Deadwood
57272,45.093788,-97.463627,Eden Township
51016,42.47014577682927,-95.77724106463414,Woodbury County
57269,45.25702898076923,-96.78488303461539,Grant County
57438,45.03305778,-99.12348106,Faulkton
57034,43.12978541282051,-96.4731247948718,Eden Township
77580,29.84994293,-94.82904217000001,Mont Belvieu
01001,42.070149102439025,-72.6258085,Agawam
55328,45.03623591952381,-93.79950066190476,Delano
02093,42.041883525,-71.34541017916666,Wrentham
07823,40.82065814189944,-75.04041951452514,White Township
08734,39.86198611730304,-74.15780941527308,Lacey Township
08515,40.13770048653846,-74.64241516538462,Chesterfield Township
07208,40.67244515592417,-74.22379888909953,Elizabeth
07758,40.429876341618495,-74.10307745491329,Middletown Township
07506,40.957231321453285,-74.15680121764706,Hawthorne
07507,40.9390553,-74.1618203,Hawthorne
08837,40.531562810094634,-74.3384950511041,Edison
07718,40.41933494386792,-74.0946651504717,Middletown Township
08872,40.4653438,-74.35575890586168,Sayreville
20812,38.96782193888889,-77.14040541666667,Glen Echo
07730,40.42395194647436,-74.1820799698718,Hazlet Township
07033,40.676222655691056,-74.29206082804878,Kenilworth
08858,40.676439216666665,-74.74534396666667,Tewksbury Township
07606,40.86477466875,-74.0472676890625,South Hackensack
07494,,,
10150,,,
33544,28.23739294735376,-82.35170791866295,Pasco County
93002,34.260239,-119.222488,San Buenaventura (Ventura)
93024,34.463529,-119.180794,Ventura County
94205,,,
95005,37.0791219,-122.0885947,Santa Cruz County
93066,34.2712574,-119.0327609,Ventura County
93022,34.39426035,-119.29989295,Ventura County
93062,34.3064047,-118.7105954,Ventura County
91370,,,
90406,,,
95812,,,
59088,45.969735,-108.1698,Worden
93004,34.29297954339623,-119.16691842523585,San Buenaventura (Ventura)
91327,,,
90264,,,
53019,43.70374159883721,-88.33091178372094,Town of Eden
33896,28.255072591034484,-81.60964246482759,Polk County
21769,39.44075142054054,-77.54413965351351,Middletown
68660,41.56998573333333,-97.8549634,Saint Edward
53910,43.89862647571429,-89.81201636071428,Town of Adams
48750,44.44832455959596,-83.38866807424243,Oscoda Township
98380,47.62007774193548,-122.84317400967741,Kitsap County
80002,39.79573675714286,-105.0867357904762,Arvada
98055,47.447906521951225,-122.20040553329945,Renton
78645,30.450024877419906,-97.98672988794983,Travis County
40544,,,
10175,42.9642086,-88.0395378,Greenfield
92225,33.620883918465225,-114.60369859904077,Blythe
12569,41.74026010708622,-73.81161981162042,Town of Pleasant Valley
48192,42.20782176407186,-83.1660527244012,Wyandotte
21032,39.04544011161048,-76.59325427191011,Anne Arundel County
84741,37.049040622388056,-112.44410750447761,Kane County
89447,38.98880009375,-119.1641903375,Yerington
99692,53.89102087999999,-166.54109335,Unalaska
14240,,,
32544,30.41495041666667,-86.70294061,Okaloosa County
46113,39.64551098741483,-86.31311868549098,Indianapolis
10930,41.35671892751156,-74.12038596054488,Village of Woodbury
93067,34.422100625576924,-119.5971823323077,Summerland
93275,,,
30145,34.20318229593023,-84.94728384651162,Bartow County
20158,39.140743998666665,-77.65780843733333,Loudoun County
77074,29.682198003810978,-95.50296301158536,Houston
57328,43.4349832,-98.3994403,Corsica
77306,30.277120180373828,-95.31962071308412,Montgomery County
97467,43.69034484225352,-124.13223921267605,Reedsport
43102,39.64972862312138,-82.74747412080924,Amanda
07648,40.99405718090909,-73.95413710363636,Norwood
56323,45.612654315,-95.730394515,Pope County
10310,40.63191720510605,-74.11652725478397,Richmond County
83686,43.55986205075757,-116.5938631023148,Nampa
96021,39.922530246875,-122.196525340625,Corning
95052,,,
77274,,,
57026,44.28778205892857,-96.52857507678571,Alton Township
10921,41.32989680882208,-74.36019487634303,Village of Florida
85502,33.384967,-110.783837,Gila County
78104,28.440253,-97.7423418,Bee County
85390,33.971609801999996,-112.76504538800002,Wickenburg
33415,26.66032594790528,-80.12810532459015,Palm Beach County
73135,35.39259547707182,-97.43257479060775,Oklahoma City
60195,42.0697424255132,-88.10297468313783,Hoffman Estates
63826,36.179416,-89.831655,Pemiscot County
06384,41.58381862280851,-71.83262420646808,Voluntown
53167,42.74198288125,-88.223861875,Rochester
75404,,,
28345,34.88519448514492,-79.70187774601449,Hamlet
28311,35.13080184273973,-78.89690053616438,Fayetteville
30655,33.79313703518072,-83.72758777855421,Monroe
16804,40.781341,-77.8842699,Ferguson Township
54627,44.1678180277027,-91.2504325222973,Town of Ettrick
83313,43.46091281051282,-114.25484903192309,Bellevue
92586,33.70030108472623,-117.19569053227666,Sun City
74868,35.23531591831683,-96.6737682970297,Seminole
40336,37.70027261925926,-83.98872893888888,Estill County
42501,37.070931833885545,-84.56577954307228,Pulaski County
61241,41.48103747548387,-90.3333408219355,Henry County
61414,41.089872228260866,-90.18650722173912,Knox County
62326,40.417374586885245,-90.79997745737705,McDonough County
61233,41.293503,-90.292174,Andover
61235,41.40508542439024,-90.03245301341464,Henry County
62321,40.40320815919282,-91.09207210627802,Hancock County
61259,41.386268441463415,-90.89050887317073,Rock Island County
61266,,,
61434,41.168855519411764,-90.04162716529412,Galva
61430,40.943273872000006,-90.3120407,East Galesburg
61109,42.214811840331485,-89.04492350486188,Rockford
61447,40.85615804576271,-90.73682461694915,Warren County
61422,40.5369143980198,-90.52135375544555,McDonough County
53125,42.54866352030075,-88.55934586165414,Fontana-on-Geneva Lake
61486,41.172448387692306,-90.58732564307692,Mercer County
61840,40.29037761395349,-88.31762145581395,Champaign County
61071,41.762081767582416,-89.66475039313187,Whiteside County
61260,41.22180831511628,-90.87847369302325,Mercer County
36037,31.825003664851486,-86.62131301039604,Greenville
27201,37.58741025,-82.99257295,Magoffin County
27370,35.84444188061465,-79.98475563144208,Trinity
60901,41.11645383823976,-87.87150889544765,Kankakee
55352,44.66172834144737,-93.60450692861842,Sand Creek Township
55963,44.18518701681682,-92.638942806006,Olmsted County
51201,43.067591362857144,-95.69485870952381,O'Brien County
69162,41.133379846428575,-102.96927187857143,Sidney
49428,42.90554073875803,-85.82689049828694,Georgetown Charter Township
15276,,,
20701,39.12924681847134,-76.79444016815287,Howard County
13642,44.32497684023183,-75.4596214057745,Town of Gouverneur
22313,,,
20254,,,
51052,42.302139916363636,-96.29105264727274,Woodbury County
89440,39.3096180875,-119.64917105833332,Storey County
54246,45.35629755102041,-86.91826930408163,Town of Washington
32399,30.40376495,-84.24497609375,Leon County
12578,41.80576913071161,-73.79482254241573,Salt Point
69163,41.3990859,-100.537126,Logan County
14037,42.816127320400724,-78.46265724717668,Town of Bennington
16731,41.94727581785714,-78.34786321071428,Eldred Township
92301,34.5572439875,-117.40665125250001,Adelanto
19975,38.464813783333334,-75.11272455339807,Sussex County
16229,40.69919785384616,-79.65762126752136,South Buffalo Township
26502,39.606296,-80.010485,Monongalia County
25520,38.54705825,-82.20625855,Cabell County
26415,39.28404212368421,-80.96554075263158,Pennsboro
26537,39.47028205238095,-79.67985308452381,Kingwood
26170,39.39674234677419,-81.19972832741935,St. Marys
38549,36.56881663476821,-85.15642426192053,Pickett County
38006,35.69299249650349,-89.09251985874126,Haywood County
38363,35.651950863902435,-88.1143091302439,Parsons
37743,36.12261817721046,-82.85506239526775,Greene County
37814,36.22256016753689,-83.31290864642452,Morristown
38343,35.826487709090905,-88.90244279778271,Humboldt
37602,,,
38057,35.05665096833334,-89.37952550166666,Moscow
37880,35.731461116666665,-84.66408212666667,Roane County
37745,36.20465809281609,-82.8065081762931,Greene County
37846,35.67146201764706,-84.44148525764706,Loudon County
37774,35.717793820042644,-84.31903509488272,Loudon County
37418,35.91493135,-83.8883015,Knoxville
37828,36.197276908,-84.051101776,Anderson County
37686,36.436969445555555,-82.33624595166667,Sullivan County
29547,34.48023309384615,-79.33536992615385,Dillon County
29709,34.73492608243243,-80.08914345,Chesterfield
29550,34.38068591113537,-80.07878160796943,Hartsville
29728,34.772572737931036,-80.39214276206896,Pageland
29510,33.46967537794118,-79.58009679889706,Williamsburg County
29503,34.0550342,-79.5414646,Florence County
27415,36.1480942,-79.7283801,Greensboro
29568,33.87017419763514,-78.76858742432432,Horry County
29901,32.42933576,-80.67343194,Beaufort
29512,34.62175077213114,-79.68685811053864,Bennettsville
29544,33.98400868955224,-79.18807878656716,Horry County
38573,36.48481038342541,-85.21860806132597,Overton County
37890,36.08886243238095,-83.29088295904762,Jefferson County
37015,36.28768017652672,-87.05831503587785,Ashland City
37682,36.22480613333333,-82.5067037,Washington County
37321,35.49490303689138,-85.01096957153557,Dayton
37166,35.929419946594,-85.79456431389646,DeKalb County
31119,,,
37877,36.15863640791667,-83.41671463624999,Hamblen County
37042,36.57341158706454,-87.41201960972936,Clarksville
94964,37.9430882,-122.49094875,San Quentin
17007,40.152002955803574,-77.13478594776785,South Middleton Township
37862,35.81560368973774,-83.5813154759407,Pigeon Forge
37760,36.11243130182927,-83.48313094430895,Jefferson City
36561,30.287649355782897,-87.56709924815851,Orange Beach
38049,35.42825412297297,-89.56708552027028,Tipton County
37238,32.55016805,-83.9842616,Crawford County
37737,35.762335569540234,-84.12500369942529,Blount County
37621,36.59388736666667,-82.25911062916666,Bristol
40422,37.640043745625,-84.776328918125,Danville
40505,38.05438464603773,-84.46106059169811,Meadows/Loudon
40144,37.748197,-86.390576,Breckinridge County
41002,38.7555874483871,-84.00104824193548,Bracken County
40353,38.05337289692982,-83.93808432105263,Mount Sterling
41064,38.53406855,-84.0512398375,Robertson County
40160,37.83136702965838,-85.9413666326087,Radcliff
28719,35.47498621438356,-83.30722880136986,Painttown Community ᎠᏂᏬᏘ
42241,,,
40423,37.6169134,-84.7343485,Boyle County
40033,37.561436217266184,-85.26129949964029,Lebanon
41601,37.61254784285714,-82.72475792857142,Floyd County
40380,37.841451695045045,-83.83424949774775,Powell County
40312,37.85584048333333,-83.94021954385966,Powell County
41858,37.12956213053435,-82.82877135038169,Letcher County
40977,36.73881965942029,-83.7174096173913,Bell County
92113,32.698107747629685,-117.1182202305783,San Diego
60002,42.46748461749663,-88.10419903270525,Lake County
60150,41.9195611,-88.84727227820514,Malta Township
21619,38.96439397135135,-76.27963610216216,Chester
48442,42.789159358702065,-83.6154127361357,Oakland County
67504,38.05595,-97.930429,Hutchinson
54126,44.288694541052635,-88.03394176210526,Town of Holland
38462,35.53268965580448,-87.54088972138493,Hohenwald
20833,39.20191205739645,-77.05654760946746,Montgomery County
11767,40.84424659535749,-73.14404219571337,Nesconset
12157,42.66411721200623,-74.30494908825364,Village of Schoharie
18510,41.40933689363296,-75.64679923632958,Scranton
70520,30.32480054521739,-92.04368958550725,Carencro
18066,40.67153431762712,-75.73844171762713,Lynn Township
05707,,,
42029,37.00855617040816,-88.35994617517007,Calvert City
39426,30.62909778416422,-89.64194381026392,Pearl River County
19111,40.0644900726601,-75.07810286083743,Philadelphia
76082,32.961210797727276,-97.68590915934344,Springtown
91950,32.675174095553174,-117.08891772191267,National City
63135,38.74819437246377,-90.30351166908213,Ferguson
34491,28.997347315779816,-82.02508958330274,Marion County
77073,30.008787796621622,-95.40284605405405,Harris County
93550,34.577765569565216,-118.09731964202898,Palmdale
73562,34.1730696,-98.4983724,Cotton County
67217,37.610927660215054,-97.35428440860215,Wichita
67110,37.475308709589044,-97.24390076643836,Mulvane
21130,39.45903101818182,-76.20441473636363,Harford County
33570,27.71403013003195,-82.44150566389777,Hillsborough County
03216,43.44004461,-71.79682203272728,Andover
55144,,,
94177,37.7699841,-122.4464002,San Francisco
93424,35.17891924603175,-120.73377083492065,San Luis Obispo County
98857,46.9683547,-119.0410412,Warden
99006,47.95151705238096,-117.4661465,Deer Park
99324,46.04084296416357,-118.37910509256506,College Place
98327,47.09913364868421,-122.63884656973684,DuPont
99134,47.4783199,-118.2645235,Lincoln County
98565,46.57727854166667,-122.90893306666668,Napavine
98280,48.5983502,-122.9422573,San Juan County
99017,47.184565,-117.899406,Whitman County
98585,46.523291505,-122.59037544,Lewis County
98815,47.52141058238953,-120.48431250350247,Cashmere
98464,,,
99171,47.085154,-117.58408,St. John
99109,48.28330308,-117.6979032,Stevens County
98538,46.5059611,-123.1215156,Lewis County
98445,47.13090414807692,-122.40953756153846,Parkland
98240,48.93486012666666,-122.60175691333335,Whatcom County
99110,48.002953,-117.564108,Stevens County
98614,46.2843198,-123.9547471,Pacific County
99360,46.037551,-118.661468,Touchet
98557,47.04875030612244,-123.2383764367347,Grays Harbor County
99344,46.81653353323864,-119.1455179903409,Adams County
99169,47.12275073958333,-118.37812944479167,Ritzville
98648,45.688700190909096,-121.89856631363638,Stevenson
98847,47.53601924890427,-120.61882136470587,Chelan County
98823,47.45990747228465,-119.71436082808988,Douglas County
98038,47.37649735343179,-122.03203730913613,Maple Valley
98446,47.12358490833333,-122.363661575,Pierce County
98465,47.24995818,-122.52910134000001,Tacoma
98577,46.61208442727273,-123.65145107272727,Pacific County
99105,46.9026179,-118.111705,Adams County
98853,47.431704,-119.284677,Grant County
98807,,,
99111,46.898956616666666,-117.36704403333333,Whitman County
98294,47.8711826483871,-121.74627915806451,Startup
99353,46.30510788,-119.35901689454546,West Richland
98361,46.645267242307696,-121.63613283461537,Lewis County
98228,,,
99347,46.4355231,-117.604293325,Garfield County
98952,46.371255,-120.726619,Yakima County
32736,28.885421198195875,-81.55536255541237,Lake County
81626,40.505712,-107.593947,Moffat County
40209,38.19083355558036,-85.75359920424107,Louisville
16417,41.99576879028436,-80.31191344952607,Girard
55801,47.0054281,-92.00254975,Normanna Township
41006,38.784683421839084,-84.34941459310345,Pendleton County
41975,,,
41051,38.94598312421875,-84.55911423541666,Independence
40191,,,
41048,39.080192439454095,-84.70995629354839,Boone County
41074,39.11103523232323,-84.46955535252526,Dayton
41012,39.0496091,-84.5293474,Covington
45216,39.19445149074074,-84.47977495259259,Cincinnati
45275,,,
41080,39.06595965714286,-84.83154682857143,Boone County
40011,38.52705974102564,-85.20643451025641,Campbellsburg
41040,38.67064672279793,-84.33151276010364,Falmouth
41073,39.1033577258427,-84.48104340674158,Bellevue
41035,38.70610816580311,-84.61311579378238,Grant County
41072,,,
41047,,,
98328,46.871707298963734,-122.28905122279792,Pierce County
98051,47.351127242043894,-121.92902434430728,King County
30250,33.44266492941176,-84.31971407058823,Lovejoy
30241,33.0310960572477,-84.99589199688073,Troup County
30205,33.269891333333334,-84.46400945333333,Fayette County
30010,,,
77422,29.025548863043483,-95.56767016449275,Brazoria County
77516,29.2078418,-95.51530983333333,Holiday Lakes
77257,,,
28604,36.167405712842466,-81.85208015513699,Avery County
77591,29.400217253481014,-95.0110228772152,Texas City
77542,,,
77258,,,
46342,41.5320600271831,-87.2631445028169,Hobart
92013,,,
93218,35.8913489,-119.0446507,Tulare County
06056,,,
91914,32.66421884060773,-116.95794926889963,Chula Vista
95663,38.8350158,-121.1688375,Placer County
91066,34.15629345,-118.02773975,Arcadia
91705,,,
96611,,,
45201,,,
91746,34.047885861838445,-117.98228993119777,La Puente
92054,33.192451625327735,-117.35760879172926,Oceanside
32168,29.02540058432597,-80.97868948274034,Glencoe
85344,34.144381110000005,-114.28234334166667,Parker
43105,39.84975106220096,-82.6159771492823,Baltimore
98037,47.83905181478261,-122.27122978666665,Snohomish County
85641,31.955138801785715,-110.7627458267857,Pima County
89507,,,
33335,,,
34133,,,
77316,30.316920613002367,-95.63556826832152,Montgomery County
27510,35.91141155577252,-79.08090077964653,Carrboro
85705,32.25388694573171,-110.97892277560976,Miracle Manor
90057,34.06370375116279,-118.27665307558138,Los Angeles
85122,32.89114284375,-111.73293571964285,Casa Grande
85706,32.15376787916667,-110.95350885902776,Tucson
85717,,,
85746,32.14958583978495,-111.02424164946237,Pima County
12116,42.529991324939466,-74.93616533688459,Town of Milford
07087,40.765325770746884,-74.03333835497925,Union City
29125,33.72869777966102,-80.45843561864407,Sumter County
21094,39.603761658536584,-76.11431432682927,Port Deposit
21788,39.60821143487859,-77.41365740993378,Frederick County
21703,39.39281308966366,-77.44560111517637,Frederick County
21738,39.273028244590165,-77.02383849836066,Howard County
20650,38.25244810783848,-76.61242465629454,Saint Mary's County
21668,39.18690520714286,-75.85472656160715,Sudlersville
15422,39.985816675,-79.815383775,Redstone Township
21221,39.3073682401084,-76.45198416515768,Baltimore County
21102,39.67875342079063,-76.8218901068814,Carroll County
21787,39.655896266147856,-77.16660288793774,Taneytown
20871,39.242254438793104,-77.26618388464696,Clarksburg
21853,38.20525580511811,-75.71029867598425,Princess Anne
21871,38.091174578409095,-75.74235021931818,Somerset County
21817,37.98291804891304,-75.84900458521739,Crisfield
94159,,,
29465,,,
21239,39.36190800325297,-76.58870471131618,Baltimore
20842,39.21894552727272,-77.41166376818181,Montgomery County
20685,38.44453712155626,-76.52237922860147,Calvert County
21770,39.355043910606064,-77.27601272142857,Green Valley
21755,39.36131978502416,-77.54968785797101,Frederick County
21623,39.13036133670886,-75.97023197848102,Queen Anne's County
21048,39.5039484476378,-76.91276303661417,Carroll County
21220,39.34095201118478,-76.41530817773422,Baltimore Crossroads @ 95
20849,,,
49931,47.11605324690158,-88.57730459647631,Houghton
89158,36.10629365,-115.17411495,Paradise
77288,,,
07203,40.65168332014388,-74.26394629280576,Roselle
80163,,,
07002,40.66850345855513,-74.11707792357414,Bayonne
74019,36.281673796414346,-95.6298735,Claremore
97025,,,
91426,,,
44127,41.47071810865384,-81.64955952163461,Cleveland
38137,35.1116528,-89.8923493,Memphis
25328,,,
20195,38.94756525,-77.3295459,Reston
24477,38.018931047805914,-79.03032118990915,Stuarts Draft
92841,33.78694327927814,-117.97627751759212,Garden Grove
23015,37.91446433020101,-77.62622009567839,Hanover County
12442,42.223989845980256,-74.23955137023977,Town of Jewett
12804,43.33205256775052,-73.67656968149264,Town of Queensbury
12414,42.226464372753846,-73.89928517462482,Town of Catskill
12871,43.09257796671733,-73.60128152639311,Town of Saratoga
12051,42.3521816568327,-73.81806021871009,Village of Coxsackie
12419,41.857249172804536,-74.10433573314448,Town of Rosendale
12832,43.392082347096185,-73.3019035110103,Town of Granville
12074,43.04534819142857,-74.04989547295237,Town of Galway
12125,42.47172071322691,-73.40878722018245,Town of New Lebanon
12020,43.0069992648023,-73.84376106632982,Village of Ballston Spa
12067,42.564112959330764,-73.91631449897041,Town of New Scotland
12106,42.388842165142364,-73.70554977497844,Village of Kinderhook
12132,42.47206153939394,-73.63020134545455,Town of Chatham
13365,43.05355361748833,-74.85385367108947,City of Little Falls
12017,42.31514894136808,-73.45803141009772,Town of Austerlitz
13782,42.1696977625879,-74.98928377285515,Town of Hamden
12035,42.72706342547771,-74.35684361210191,Town of Esperance
95589,40.03963665,-124.06636421666667,Humboldt County
85550,33.36695747647059,-110.49539268823528,Gila County
12075,42.301066446222485,-73.6465855666865,Town of Ghent
12748,41.780211239127105,-74.92491535819296,Village of Jeffersonville
12083,42.42304204442864,-74.03406999625415,Town of Greenville
12446,41.80295843830351,-74.30803426762758,Town of Rochester
12136,42.432998716396106,-73.55759785081169,Town of Chatham
12501,41.855770420168064,-73.55562930244461,Amenia
13751,42.45787071078431,-74.88415356862745,Town of Davenport
12580,41.849772914307934,-73.89027774836704,Town of Hyde Park
13753,42.29607464222326,-74.918942595376,Town of Delhi
22093,,,
22442,36.89799,-82.30858,St. Paul
14818,42.44085635455235,-76.84005627663126,Town of Hector
22106,,,
22972,38.21771055526315,-78.23675811315789,Orange County
11233,40.67894182698337,-73.92035501049419,Brooklyn
77511,29.415574412141652,-95.24001345784148,Alvin
97228,,,
17016,40.27353258,-76.40519667999999,Cornwall
34232,27.3204193005423,-82.47148733264642,Sarasota County
21053,39.69164130261584,-76.71237477301943,Baltimore County
22932,38.084216437383176,-78.69526676682243,Albemarle County
22714,38.50699306404495,-77.90680584719101,Culpeper County
92325,34.315030009090904,-117.35816374242425,Hesperia
01118,42.09292884375,-72.537329325,Springfield
82324,41.6872461,-106.4135005,Elk Mountain
82720,44.680258314285716,-104.59556107142858,Hulett
82605,42.8460817,-106.2911374,Casper
82637,42.85905104,-105.87385386,Glenrock
85637,31.658879750458716,-110.64133747247705,Sonoita
85714,32.1665443877193,-110.95150027719298,Tucson
85747,32.09883638372093,-110.7895442635659,Tucson
78612,30.129860112396692,-97.50365187438015,Bastrop County
32338,,,
85740,,,
85621,31.370249264467006,-110.91643259137057,Nogales
23222,37.575688849361114,-77.42473100455082,Richmond
22215,,,
23024,37.9670575864486,-77.74330703831775,Louisa County
85629,31.9520289,-110.98614926666667,Sahuarita
86002,35.246567,-111.977989,Coconino County
85648,31.47226513333333,-110.97921433333333,Santa Cruz County
51346,43.1678121508547,-95.47966884957265,O'Brien County
02056,42.11649127441861,-71.31876390697674,Norfolk
51054,42.3929511220339,-96.35806970508474,Sergeant Bluff
51241,43.43990486826923,-96.41493587884615,Larchwood Township
50207,41.447431043209875,-92.64634091893004,Mahaska County
75938,30.922359396666664,-94.41086681333333,Tyler County
77627,29.972200023325062,-94.00000383424317,Nederland
77484,30.06819484875,-95.91413302437499,Harris County
77347,,,
78934,29.700609274496646,-96.5491671885906,Columbus
79469,,,
75461,33.662542,-95.4617619,Reno
75033,33.17691667878788,-96.84472188181819,Frisco
75801,31.75139758627451,-95.62735179131653,Palestine
78163,29.76851203391813,-98.42518711929824,Comal County
77049,29.816477447755105,-95.18514221061226,Harris County
17257,40.054494249541285,-77.51173272224771,Shippensburg
28150,35.316668709004745,-81.54852871244076,Cleveland County
45065,39.372064704,-84.215029051,South Lebanon
45146,39.31313648518519,-83.80199247777777,Clark Township
45850,40.70617566484375,-83.92904826015625,Auglaize Township
44621,40.40514571909091,-81.30096668,Tuscarawas County
92516,,,
92502,,,
76384,34.16868486803456,-99.31398198185745,Vernon
10984,41.20533381233993,-74.0173854467986,Thiells
89019,35.740525929166665,-115.43951496666668,Clark County
89125,36.7114991,-114.7134262,Moapa Town
59741,45.8192045125,-111.328563525,Gallatin County
59034,45.7397324,-107.6118256,Hardin
08903,40.49453715,-74.44273365,New Brunswick
90260,33.89133360689655,-118.35560698390806,Lawndale
67214,37.70063862878788,-97.3173068060606,Wichita
00936,18.43502488,-66.08504542,Hato Rey Norte
54499,44.76474678623188,-89.22595483242753,Town of Franzen
87540,35.4344178,-105.91735682222222,Santa Fe County
76797,,,
96768,20.84665798857143,-156.31484076571428,Makawao
19357,39.8539454,-75.6407923,Kennett Township
20920,,,
20521,,,
48160,42.09628528394737,-83.68451902342105,Milan
64501,39.767191741658536,-94.847342196,Saint Joseph
78748,30.164527658442186,-97.82763772385098,Austin
01339,42.61160000769231,-72.88474899230769,Hawley
33416,26.66966845,-80.10114565,Palm Beach County
15061,40.67113455764331,-80.2869904700637,Center Township
98508,,,
01754,42.43156151336045,-71.45441928138298,Maynard
53220,42.968020954469345,-87.99174880139104,Greenfield
90905,,,
34223,26.984381599364404,-82.36830343234463,Englewood
77255,,,
55616,47.05070201185567,-91.68404364020618,Lake No. 2
18252,40.79806411731092,-75.96814608386555,Tamaqua
50541.0,,,
51020.0,,,
20431.0,,,
94098.0,,,
84336.0,,,
99275.0,,,
63556.0,,,
6540.0,,,
10685.0,,,
10586.0,,,
88041.0,,,
88072.0,,,
12143.0,,,
36849.0,,,
56339.0,,,
7820.0,,,
47971.0,,,
94971.0,,,
67137.0,,,
94009.0,,,
84620.0,,,
44627.0,,,
61014.0,,,
59414.0,,,
59029.0,,,
59827.0,,,
59201.0,,,
99180.0,,,
80729.0,,,
28727.0,,,
22071.0,,,
19365.0,,,
17607.0,,,
66054.0,,,
770026506.0,,,
802372014.0,,,
189691065.0,,,
481464218.0,,,
300043546.0,,,
553692948.0,,,
197011651.0,,,
463049372.0,,,
591030796.0,,,
207779773.0,,,
985898607.0,,,
620169537.0,,,
752483423.0,,,
617020195.0,,,
550634012.0,,,
952403306.0,,,
553911784.0,,,
587220356.0,,,
937111938.0,,,
480093820.0,,,
177549697.0,,,
553098538.0,,,
333161544.0,,,
554463509.0,,,
731271125.0,,,
360674025.0,,,
339194508.0,,,
551261935.0,,,
554281024.0,,,
338021608.0,,,
493079468.0,,,
713012314.0,,,
303071223.0,,,
77243438.0,,,
687480091.0,,,
331653300.0,,,
853797016.0,,,
658094500.0,,,
341347023.0,,,
79604718.0,,,
352051765.0,,,
633674775.0,,,
272159831.0,,,
902742510.0,,,
905103384.0,,,
852595075.0,,,
553014311.0,,,
600454925.0,,,
770562100.0,,,
837128362.0,,,
201291844.0,,,
902644200.0,,,
522479484.0,,,
554496518.0,,,
201711621.0,,,
705062913.0,,,
330643542.0,,,
665381830.0,,,
926772364.0,,,
856225413.0,,,
615501333.0,,,
806342955.0,,,
853742030.0,,,
945883554.0,,,
180711212.0,,,
631241819.0,,,
363620446.0,,,
773184727.0,,,
691012744.0,,,
770691328.0,,,
492719402.0,,,
980405235.0,,,
787503436.0,,,
563871206.0,,,
551194748.0,,,
750565720.0,,,
923454165.0,,,
852261307.0,,,
349904501.0,,,
741034700.0,,,
902102837.0,,,
326192032.0,,,
940245957.0,,,
803013791.0,,,
276069794.0,,,
850204843.0,,,
722054266.0,,,
956489317.0,,,
985951407.0,,,
981123210.0,,,
333177322.0,,,
752301961.0,,,
802233852.0,,,
752301823.0,,,
752302110.0,,,
352132903.0,,,
565602746.0,,,
773383572.0,,,
370286145.0,,,
788346671.0,,,
212047506.0,,,
117068116.0,,,
926605723.0,,,
488171154.0,,,
763664050.0,,,
554361148.0,,,
527729390.0,,,
24816103.0,,,
770191004.0,,,
982965046.0,,,
341080740.0,,,
554362028.0,,,
945983519.0,,,
752064026.0,,,
757566089.0,,,
644292144.0,,,
322172629.0,,,
982489219.0,,,
349904535.0,,,
381114755.0,,,
550146407.0,,,
752877541.0,,,
906702964.0,,,
403835449.0,,,
750694218.0,,,
951204513.0,,,
18453626.0,,,
949775328.0,,,
393057901.0,,,
855416152.0,,,
672083944.0,,,
752196700.0,,,
750706110.0,,,
752296429.0,,,
920246337.0,,,
758351716.0,,,
983627491.0,,,
750344575.0,,,
980075325.0,,,
902123656.0,,,
88231769.0,,,
553034702.0,,,
926043306.0,,,
782095647.0,,,
809152131.0,,,
352427206.0,,,
351250325.0,,,
245511255.0,,,
940874400.0,,,
631321431.0,,,
341108686.0,,,
222031038.0,,,
662154546.0,,,
206465714.0,,,
290168318.0,,,
446919646.0,,,
372154123.0,,,
784125154.0,,,
711340848.0,,,
741590335.0,,,
550031440.0,,,
767063738.0,,,
330216518.0,,,
730347058.0,,,
85273344.0,,,
480254267.0,,,
740126723.0,,,
922703431.0,,,
212043628.0,,,
940703821.0,,,
550216506.0,,,
333163022.0,,,
23641524.0,,,
322253514.0,,,
730722821.0,,,
956308725.0,,,
337062722.0,,,
201080921.0,,,
564330186.0,,,
352103813.0,,,
940411607.0,,,
580759332.0,,,
